Venue_Name,Address,Description,Website,Facebook_Link,Latitude,Longitude
Northcote Social Club,"301 High St, Northcote VIC 3070, Australia","bar, restaurant, food, point_of_interest, establishment",http://northcotesocialclub.com/,https://www.facebook.com/northcotesocialclub,-37.771471,144.998414
170 Russell,"170 Russell St, Melbourne VIC 3000, Australia","point_of_interest, establishment",http://170russell.com/,https://www.facebook.com/170russell,-37.8120109,144.9679369
Melbourne Public,"11 Dukes Walk, South Wharf VIC 3006, Australia","bar, restaurant, point_of_interest, food, establishment",https://melbournepublic.com.au/,https://www.facebook.com/MelbournePublic,-37.82429308,144.95070613387392
Open Studio,"204 High St, Northcote VIC 3070, Australia","bar, point_of_interest, establishment",http://www.openstudiobar.com.au/,https://www.facebook.com/openstudio.bar,-37.7742382,144.9981587
Prince Bandroom,"29 Fitzroy St, St Kilda VIC 3182, Australia","bar, point_of_interest, establishment",https://theprince.com.au/prince-bandroom/,https://www.facebook.com/theprincebandroom,-37.85747233,144.98140261298386
The Gem Bar and Dining,"289 Wellington St, Collingwood VIC 3066, Australia","bar, point_of_interest, establishment",http://www.thegembar.com.au/,https://www.facebook.com/thegembarau,-37.7963837,144.9875917
Tempo Rubato,"34 Breese St, Brunswick VIC 3056, Australia","bar, point_of_interest, establishment",http://www.temporubato.com.au/,https://www.facebook.com/temporubato.au,-37.7620474,144.9617907
Musicland Melbourne,"1359 Sydney Rd, Fawkner VIC 3060, Australia","point_of_interest, establishment",https://www.musiclandlive.com/,https://www.facebook.com/musiclandmelbourne,-37.6916774,144.9585701581541
Cactus Room,"614 High St, Thornbury VIC 3071, Australia","store, bar, point_of_interest, establishment",http://www.cactusroom.com.au/,https://www.facebook.com/cactusroommelbourne,-37.76125825,145.00041662186553
Naughty Nancy's,"190 Chapel St, Prahran VIC 3181, Australia","bar, restaurant, point_of_interest, food, establishment",http://naughtynancys.com.au/,https://www.facebook.com/nancyschapelst,-37.8514455,144.9935576
The Workers Club,"51 Brunswick St, Fitzroy VIC 3065, Australia","bar, restaurant, food, point_of_interest, establishment",http://www.theworkersclub.com.au/,https://www.facebook.com/theworkersclub,-37.8055776,144.9769450659087
Imperial South Yarra,"522 Chapel St, South Yarra VIC 3141, Australia","restaurant, bar, food, point_of_interest, establishment",https://www.imperialsouthyarra.com/?utm_source=google&utm_medium=organic&utm_campaign=gmb&utm_term=plcid_509697143426896053,https://www.facebook.com/imperialsouthyarra,-37.8415027,144.9953712
The Last Chance,"238 Victoria St, Melbourne VIC 3000, Australia","bar, point_of_interest, establishment",http://www.thelastchance.com.au/,https://www.facebook.com/thelastchancerockandrollbar,-37.8059962,144.9585654
Lona St Kilda,"Unit 64/66 Acland St, St Kilda VIC 3182, Australia","restaurant, bar, food, point_of_interest, establishment",http://lona.com.au/,https://www.facebook.com/LonaStKilda,-37.86668052,144.978209
MEMO Music Hall,"88 Acland St, St Kilda VIC 3182, Australia","point_of_interest, store, establishment",http://www.memomusichall.com.au/,https://www.facebook.com/memomusichall,-37.8671902,144.9786817
Way Out West Roots Music Club,"4 Market St, Newport VIC 3015, Australia","point_of_interest, establishment",https://wowrootsmusic.com/,https://www.facebook.com/WayOutWestRootsMusicClub,-37.8439028,144.8823845
Music Room,"Level 1/270 Lonsdale St, Melbourne VIC 3000, Australia","bar, point_of_interest, establishment",https://her.melbourne/musicroom,https://www.facebook.com/profile.php?id=100076280131316,-37.8115136,144.9641502
Bourke Street Courtyard,"629 Bourke St, Melbourne VIC 3004, Australia","point_of_interest, establishment",,https://www.facebook.com/Bourkestreetcourtyard,-37.8167994,144.9552063
The Count's,"48 Exhibition Walk The Ian Potter Centre for Performing Arts, Monash University Clayton Campus, Clayton VIC 3168, Australia","restaurant, cafe, night_club, bar, food, point_of_interest, establishment",https://www.monash.edu/performing-arts-centres/eat-drink-clayton-campus/,https://www.facebook.com/BatCount,-37.9131481,145.1337317
Howler,"7-11 Dawson St, Brunswick VIC 3056, Australia","bar, point_of_interest, establishment",https://www.howlerbrunswick.com/,https://www.facebook.com/Howlermelbourne,-37.7720304,144.9596527
arcobar heatherton,"8 Arco Ln, Heatherton VIC 3202, Australia","meal_takeaway, bar, cafe, restaurant, point_of_interest, food, store, establishment",http://www.arcobar.com.au/,https://www.facebook.com/arcobarmoorabbin,-37.94673685,145.07837928457485
Revolver Upstairs,"Level 2/229 Chapel St, Prahran VIC 3181, Australia","bar, restaurant, point_of_interest, food, establishment",http://revolverupstairs.com.au/,https://www.facebook.com/revolverupstairs,-37.8505902,144.9933469
THE CURTIN (John Curtin hotel),"29 Lygon St, Carlton VIC 3053, Australia","bar, restaurant, point_of_interest, food, establishment",http://www.johncurtinhotel.com/,https://www.facebook.com/theCURTIN,-37.8061581,144.9657057
Lyrebird Lounge,"61 Glen Eira Rd, Ripponlea VIC 3185, Australia","bar, restaurant, point_of_interest, food, establishment",http://www.lyrebirdlounge.com.au/,https://www.facebook.com/lyrebirdlounge07,-37.8766692,144.9970761
The JazzLab - Bennetts Lane Jazz Club Brunswick,"27 Leslie St, Brunswick VIC 3056, Australia","point_of_interest, establishment",https://thejazzlab.com.au/,https://www.facebook.com/Bennettslane,-37.766903,144.9586498
Blondie Bar,"Cnr Southbank Boulevard &, 31 Sturt St, Southbank VIC 3006, Australia","restaurant, night_club, meal_takeaway, park, bar, food, point_of_interest, establishment",http://www.blondiebar.com.au/,https://www.facebook.com/profile.php?id=100089831631577,-37.8238338,144.9678462
Baxter's,"302 Brunswick St, Fitzroy VIC 3065, Australia","bar, point_of_interest, establishment",http://www.baxterslivemusic.com.au/,https://www.facebook.com/BaxterMelbourneSalon,-37.7981225,144.978682
The Thornbury Local,"635 High St, Thornbury VIC 3071, Australia","bar, meal_takeaway, restaurant, food, point_of_interest, establishment",http://www.thethornburylocal.com/,https://www.facebook.com/thethornburylocal,-37.76165125,144.99987967655426
Titanic on Nelson,"1 Nelson Pl, Williamstown VIC 3016, Australia","bar, restaurant, food, point_of_interest, establishment",http://www.titaniconnelson.com.au/,https://www.facebook.com/TITANICONNELSON,-37.86520555,144.90992269999236
Retreat Hotel,"Level 1/280 Sydney Rd, Brunswick VIC 3056, Australia","bar, point_of_interest, establishment",http://www.retreathotelbrunswick.com.au/,https://www.facebook.com/theretreathotel,-37.7711487,144.9615949
The Irish Times Pub,"427 Little Collins St, Melbourne VIC 3000, Australia","bar, restaurant, point_of_interest, food, establishment",http://www.theirishtimespub.com.au/,https://www.facebook.com/irishtimes.melb,-37.8137139,144.9688023790143
Wax Music Lounge,"250 Flinders St, Melbourne VIC 3000, Australia","bar, point_of_interest, establishment",http://www.waxmusiclounge.com/,https://www.facebook.com/waxmusiclounge,-37.8176298,144.9661635
Bar Open,"317 Brunswick St, Fitzroy VIC 3065, Australia","bar, point_of_interest, establishment",https://baropen.com.au/,https://www.facebook.com/baropenfitzroy,-37.79773,144.978425
Carnegie Hall,"60 Rosstown Rd, Carnegie VIC 3163, Australia","point_of_interest, establishment",https://carnegiehall.au/,https://www.facebook.com/CarnegieHallDutchClubAbelTasman,-37.8864262,145.05686284914034
George Lane St Kilda,"1 George Ln, St Kilda VIC 3182, Australia","point_of_interest, establishment",http://www.georgelane.com.au/,https://www.facebook.com/GeorgeLaneStKilda,-37.85997305,144.9780306
The Old Bar,"74-76 Johnston St, Fitzroy VIC 3065, Australia","bar, art_gallery, point_of_interest, establishment",http://www.theoldbar.com.au/,https://www.facebook.com/theoldbarfitzroy,-37.79833,144.97711
The Merri Creek Tavern,"111 High St, Northcote VIC 3070, Australia","bar, point_of_interest, establishment",https://www.facebook.com/111HighStreet/,https://www.facebook.com/111HighStreet,-37.7794356,144.996838
Temperance Hotel,"426 Chapel St, South Yarra VIC 3141, Australia","bar, restaurant, food, point_of_interest, establishment",http://www.temperancehotel.com.au/,https://www.facebook.com/temperancehotel,-37.84306185,144.99489592695178
Sunshine City Club,"24 Talmage St, Albion VIC 3020, Australia","bar, restaurant, food, point_of_interest, establishment",http://www.sunshinecityclub.com.au/,https://www.facebook.com/silosbistro,-37.779028,144.8243730166129
Lucky 13 Garage,"8 Cochranes Rd, Moorabbin VIC 3189, Australia","cafe, store, bar, food, point_of_interest, establishment",http://www.lucky13garage.au/,https://www.facebook.com/lucky13garageAustralia,-37.94349189,145.07036236060654
Mamma Chen's,"42A Albert St, Footscray VIC 3011, Australia","point_of_interest, establishment",https://mammachens.com.au/,https://www.facebook.com/mammachens,-37.8047552,144.89727240000002
The Croxton,"607 High St, Thornbury VIC 3071, Australia","bar, restaurant, food, point_of_interest, establishment",https://www.croxtonparkhotel.com.au/,https://www.facebook.com/thecroxtonthornbury,-37.76237695,144.99959550357977
Mr Boogie Man Bar,"160 Hoddle St, Abbotsford VIC 3067, Australia","bar, point_of_interest, establishment",http://www.facebook.com/mrboogiemanbar,https://www.facebook.com/mrboogiemanbar,-37.80245,144.99295304614787
Bar 303,"303 High St, Northcote VIC 3070, Australia","bar, point_of_interest, establishment",http://303.net.au/,https://www.facebook.com/Bar303Nothcote,-37.7713296,144.99828116650363
Goat House,"272 Glen Huntly Rd, Elsternwick VIC 3185, Australia","restaurant, bar, food, point_of_interest, establishment",http://www.goathouse.com.au/,https://www.facebook.com/goathousecafebarrestaurant,-37.88439797,145.00088700714286
The Drunken Poet,"65 Peel St, West Melbourne VIC 3003, Australia","bar, point_of_interest, establishment",http://www.thedrunkenpoet.com.au/,https://www.facebook.com/drunkenpoetmusic,-37.8066759,144.9555612
Bar Oussou,"653 Sydney Rd, Brunswick VIC 3056, Australia","bar, point_of_interest, establishment",http://www.baroussou.com/,https://www.facebook.com/BarOussou,-37.7618155,144.9628753
The Yarra Hotel,"295 Johnston St, Abbotsford VIC 3067, Australia","bar, restaurant, food, point_of_interest, establishment",http://www.theyarrahotel.com.au/,https://www.facebook.com/YarraHotelAbbotsford,-37.800341,144.996401
Royal Saxon,"545 Church St, Richmond VIC 3121, Australia","bar, restaurant, food, point_of_interest, establishment",http://www.royalsaxon.com/,https://www.facebook.com/royalsaxon,-37.8294163,144.9973865
Piano on High,"211A High St, Northcote VIC 3070, Australia","bar, point_of_interest, establishment",,https://www.facebook.com/profile.php?id=61550273344621,-37.7739652,144.9979272
The Toff,"2f/252 Swanston St, Melbourne VIC 3000, Australia","night_club, bar, point_of_interest, establishment",https://thetoff.com.au/,https://www.facebook.com/thetoffintown,-37.80660325,144.9628141258931
Bird's Basement,"11 Singers Ln, Melbourne VIC 3000, Australia","night_club, bar, restaurant, food, point_of_interest, establishment",https://birdsbasement.com/,https://www.facebook.com/birdsbasement,-37.81114416,144.95680390283175
Murmur Piano Bar,"17 Warburton Ln, Melbourne VIC 3000, Australia","bar, point_of_interest, establishment",http://www.murmur.com.au/,https://www.facebook.com/murmurpianobar,-37.8138247,144.9619345916501
Customs House Hotel Williamstown,"161 Nelson Pl, Williamstown VIC 3016, Australia","restaurant, bar, food, point_of_interest, establishment",http://www.customshousehotel.com.au/,https://www.facebook.com/customs.house,-37.8630972,144.904029
Fad Gallery Bar,"14 Corrs Ln, Melbourne VIC 3000, Australia","bar, art_gallery, food, point_of_interest, establishment",http://www.fadgallery.com.au/,https://www.facebook.com/fadgallery,-37.8112208,144.9684346
Iddy Biddy Bar,"35/39 Blessington St, St Kilda VIC 3182, Australia","bar, restaurant, food, point_of_interest, establishment",http://www.iddybiddy.com.au/,https://www.facebook.com/IddyBiddyStKilda,-37.87066404,144.9799835744927
Brunswick Ballroom,"314 Sydney Rd, Brunswick VIC 3056, Australia","bar, restaurant, food, point_of_interest, establishment",https://brunswickballroom.com.au/,https://www.facebook.com/brunswickballroomaus,-37.7704205,144.9617083
Melbourne Recital Centre,"31 Sturt St, Southbank VIC 3006, Australia","point_of_interest, establishment",http://www.melbournerecital.com.au/,https://www.facebook.com/Melb.Recital.Centre,-37.82408485,144.96758763141432
Max Watts,"125 Swanston St, Melbourne VIC 3000, Australia","point_of_interest, establishment",http://www.maxwatts.com.au/,https://www.facebook.com/maxwattsaus,-37.8147557,144.9659879
Fed Square,"Swanston St &, Flinders St, Melbourne VIC 3000, Australia","point_of_interest, establishment",https://www.fedsquare.com/,https://www.facebook.com/FedSquare,-37.81767355,144.9667825800355
24 Moons,"2 Arthurton Rd, Northcote VIC 3070, Australia","night_club, point_of_interest, establishment",http://www.24moons.com.au/,https://www.facebook.com/24moonsMelbourne,-37.7691418,144.9982614
Festival Hall,"300 Dudley St, West Melbourne VIC 3003, Australia","point_of_interest, establishment",http://festivalhall.com.au/,https://www.facebook.com/FestivalHallMelbourne,-37.8098193,144.9508057
The Thornbury Theatre,"859 High St, Thornbury VIC 3071, Australia","point_of_interest, establishment",http://www.thethornburytheatre.com/,https://www.facebook.com/TheThornburyTheatre,-37.754662,145.0011167
Easey Street Concert Hall,"35 Easey St, Collingwood VIC 3066, Australia","point_of_interest, establishment",http://comedy.com.au/,https://www.facebook.com/EaseyStreetConcertHall,-37.7978317,144.9871789
Kindred Bandroom,"3 Harris St, Footscray VIC 3011, Australia","point_of_interest, establishment",https://www.kindredbandroom.com.au/,https://www.facebook.com/kindredbandroom,-37.8119001,144.9008247
Bergy Bandroom,"64 Sydney Rd, Brunswick VIC 3056, Australia","point_of_interest, establishment",http://www.thebergy.com.au/,https://www.facebook.com/bergybandroom,-37.776327,144.9607158
JOLT Arts,"342 High St, Northcote VIC 3070, Australia","point_of_interest, establishment",https://jolted.art/,https://www.facebook.com/JOLTsonicarts,-37.76999425,144.99908686916982
Forum Melbourne,"154 Flinders St, Melbourne VIC 3000, Australia","point_of_interest, establishment",http://www.forummelbourne.com.au/,https://www.facebook.com/forummelbourne,-37.81644145,144.9693768124984
Shotkickers,"744 High St, Thornbury VIC 3071, Australia","point_of_interest, establishment",https://www.shotkickers.com/,https://www.facebook.com/shotkickersmelb,-37.75592655,145.0013923
Palais Theatre,"Lower Esplanade, St Kilda VIC 3182, Australia","tourist_attraction, point_of_interest, establishment",http://www.palaistheatre.com.au/,https://www.facebook.com/PalaisTheatre,-37.86708671,144.97599656199426
Melbourne Music & Events,"109 Severn St, Box Hill North VIC 3129, Australia","point_of_interest, establishment",,https://www.facebook.com/badcirclee,-37.81272744,145.12601032408477
Hume Blues Club Inc,"27 Ballantyne St, Thornbury VIC 3071, Australia","bar, point_of_interest, establishment",http://www.humebluesclub.com/,https://www.facebook.com/humebluesclub,-37.7588241,144.9985126
Mantra Studio Kitchen and Bar,"10 Campbell St, Yarraville VIC 3013, Australia","store, bar, point_of_interest, establishment",http://www.mantrastudiokitchenbar.com/,https://www.facebook.com/mantrastudioyarraville,-37.820684,144.8947691
Paris Cat Jazz Club,"6 Goldie Pl, Melbourne VIC 3000, Australia","night_club, bar, point_of_interest, establishment",https://www.pariscat.com.au/,https://www.facebook.com/pariscatjazzclub,-37.8133262,144.96060714767358
CY Venue,"Collingwood Yards, Unit 2/35 Johnston St, Collingwood VIC 3066, Australia","point_of_interest, establishment",http://www.musicmarket.com.au/,https://www.facebook.com/profile.php?id=61557495390015,-37.7993436,144.9866782
Rubix Warehouse,"36 Phoenix St, Brunswick VIC 3056, Australia","point_of_interest, establishment",,https://www.facebook.com/rubixwarehousemelbourne,-37.7698629,144.95727340490248
The Night Cat,"137-141 Johnston St, Fitzroy VIC 3065, Australia","night_club, point_of_interest, establishment",http://www.thenightcat.com.au/,https://www.facebook.com/thenightcatofficial,-37.7982971,144.978128
Arts Centre Melbourne,"100 St Kilda Rd, Southbank VIC 3004, Australia","tourist_attraction, point_of_interest, establishment",https://www.artscentremelbourne.com.au/,https://www.facebook.com/artscentremelbourne,-37.8216405,144.9683143
Oakleigh Carnegie RSL,"95/97 Drummond St, Oakleigh VIC 3166, Australia","point_of_interest, establishment",https://www.ocrsl.com.au/,https://www.facebook.com/profile.php?id=100063609518332,-37.8968576,145.08963741959553
The Besen Centre,"87/89 Station St, Burwood VIC 3125, Australia","point_of_interest, establishment",http://www.besencentre.com.au/,https://www.facebook.com/thebesencentre,-37.8513627,145.1198054
The Clocktower Centre,"750 Mt Alexander Rd, Moonee Ponds VIC 3039, Australia","point_of_interest, establishment",http://www.clocktowercentre.com.au/,https://www.facebook.com/theclocktowercentre,-37.7656716,144.9248037207342
Kingston City Hall,"979-985 Nepean Hwy, Moorabbin VIC 3189, Australia","point_of_interest, establishment",http://www.kingstonarts.com.au/,https://www.facebook.com/CityOfKingston,-37.93372508,145.0352972005879
Darebin Arts Centre,"401 Bell St, Preston VIC 3072, Australia","point_of_interest, establishment",https://arts.darebin.vic.gov.au/Arts-venues/Darebin-Arts-Centre,https://www.facebook.com/artscentremelbourne,-37.7456068,144.99800123517971
Chapel Off Chapel,"12 Little Chapel St, Prahran VIC 3181, Australia","point_of_interest, establishment",https://chapeloffchapel.com.au/,https://www.facebook.com/ChapelOffChapel,-37.84832452,144.99496955222065
The Hub at Docklands,"80 Harbour Esplanade, Docklands VIC 3008, Australia","point_of_interest, establishment",https://activemelbourne.ymca.org.au/venues/the-hub-at-docklands?utm_source=google&utm_medium=organic&utm_campaign=gmb-listing,https://www.facebook.com/Hubdocklands,-37.81955095,144.94725062602112
The Pavilion,"100 St Kilda Rd, Southbank VIC 3004, Australia","point_of_interest, establishment",https://www.artscentremelbourne.com.au/,https://www.facebook.com/melbournepav3031,-37.8216405,144.9683143
Union Theatre,"University of Melbourne Arts & Cultural Building, 761 Swanston St, Parkville VIC 3052, Australia","point_of_interest, establishment",https://students.unimelb.edu.au/student-life/campuses-and-facilities/arts-and-cultural-building,https://www.facebook.com/UnionHouseTheatre,-37.7986989,144.9628911
Northcote Theatre,"216 High St, Northcote VIC 3070, Australia","point_of_interest, establishment",http://www.northcotetheatre.com/,https://www.facebook.com/NorthcoteTheatre,-37.7737068,144.9982706
Angel Music Bar,"12 Bourke St, Melbourne VIC 3000, Australia","bar, point_of_interest, establishment",,https://www.facebook.com/angelmusicbarmelbourne,-37.811331,144.972501
Blue Bar,"330 Chapel St, Prahran VIC 3181, Australia","bar, point_of_interest, establishment",https://bluebar.com.au/,https://www.facebook.com/bluebar330,-37.8480196,144.993951
Section 8,"27-29 Tattersalls Ln, Melbourne VIC 3000, Australia","bar, point_of_interest, establishment",http://www.section8.com.au/,https://www.facebook.com/section8melbourne,-37.8117457,144.965405
Saving Grace,"32 Church Ln, Melbourne VIC 3000, Australia","bar, restaurant, food, point_of_interest, establishment",http://savinggracebar.com.au/,https://www.facebook.com/savingxgrace,-37.8177293,144.9577832
Nevermind Bar,"336 Burwood Rd, Hawthorn VIC 3122, Australia","bar, point_of_interest, establishment",https://www.nevermindbar.com.au/,https://www.facebook.com/NevermindTheBar,-37.8227498,145.03482611505956
One2three Bar,"123 Queens Parade, Clifton Hill VIC 3068, Australia","bar, point_of_interest, establishment",https://www.one2threebar.com.au/,https://www.facebook.com/one2threebar,-37.7892833,144.9901391
Red Betty,"859a Sydney Rd, Brunswick VIC 3056, Australia","bar, point_of_interest, establishment",http://www.facebook.com/redbettybar,https://www.facebook.com/redbettybar,-37.77018614,144.96159377021291
Piano on Chapel,"17 Chapel St, Windsor VIC 3181, Australia","bar, point_of_interest, establishment",http://www.pianoonchapel.com/,https://www.facebook.com/profile.php?id=100075796153807,-37.8561544,144.99256131578613
Brunswick Artists' Bar,"316 Sydney Rd, Brunswick VIC 3056, Australia","bar, point_of_interest, establishment",https://brunswickballroom.com.au/brunswickartistsbar/,https://www.facebook.com/brunswickartistsbar,-37.7704205,144.9617083
Ragtime Tavern,"206 Tyler St, Preston VIC 3072, Australia","bar, point_of_interest, establishment",https://ragtimetavern.com.au/,https://www.facebook.com/ragtimetav,-37.7310367,145.0142411
EMO NEVER SLEEPS,"629 Bourke St, Melbourne VIC 3004, Australia","night_club, bar, point_of_interest, establishment",https://www.emoneversleeps.com/,https://www.facebook.com/emoneversleeps,-37.8167994,144.9552063
Mystic M Lounge,"67 McIntyre Rd, Sunshine North VIC 3020, Australia","night_club, bar, restaurant, food, point_of_interest, establishment",,https://www.facebook.com/MysticMLounge,-37.7770385,144.8287022
Lulie Tavern,"225 Johnston St, Abbotsford VIC 3067, Australia","bar, point_of_interest, establishment",http://www.lulietavern.com/,https://www.facebook.com/LulieTavern,-37.8000264,144.9936498
The Local Taphouse,"184 Carlisle St, St Kilda East VIC 3183, Australia","bar, restaurant, food, point_of_interest, establishment",http://www.thelocal.com.au/,https://www.facebook.com/thelocaltaphouseSK,-37.8681208,144.989994
The Rooks Return,"201 Brunswick St, Fitzroy VIC 3065, Australia","bar, point_of_interest, establishment",http://therooksreturn.com.au/,https://www.facebook.com/TheRooksReturn,-37.801257,144.977767
The Penny Black,"420 Sydney Rd, Brunswick VIC 3056, Australia","bar, restaurant, food, point_of_interest, establishment",https://www.thepennyblack.com.au/,https://www.facebook.com/ThePennyBlackBrunswick,-37.7679775,144.9621651
The George Lounge,"Basement/127 Fitzroy St, St Kilda VIC 3182, Australia","bar, point_of_interest, establishment",http://www.thegeorgelounge.com.au/,https://www.facebook.com/GeorgeSnakepit,-37.8595599,144.9779818
Stay Gold,"133 Sydney Rd, Brunswick VIC 3056, Australia","bar, point_of_interest, establishment",http://www.staygoldmelbourne.com.au/,https://www.facebook.com/staygoldmelbourne,-37.7743469,144.9607404
Cherry,"68 Little Collins St, Melbourne VIC 3000, Australia","bar, point_of_interest, establishment",http://cherrybar.com.au/,https://www.facebook.com/CherryPossum,-37.8128595,144.9713425
Whitehart Bar,"22 Whitehart Ln, Melbourne VIC 3000, Australia","bar, point_of_interest, establishment",http://www.whitehartbar.com.au/,https://www.facebook.com/whitehartmelbourne,-37.8126316,144.96187808963626
Bad Decisions Bar,"46 Johnston St, Fitzroy VIC 3065, Australia","bar, restaurant, food, point_of_interest, establishment",http://www.thebdb.com.au/,https://www.facebook.com/baddecisionsbar,-37.798246,144.9762881
White Rabbit Record Bar,"176 Bellair St, Kensington VIC 3031, Australia","bar, cafe, food, point_of_interest, establishment",http://www.whiterabbitrecords.com.au/,https://www.facebook.com/whiterabbitrecordbar,-37.79364345,144.9300081139691
La Di Da,"577 Little Bourke St, Melbourne VIC 3000, Australia","night_club, bar, restaurant, point_of_interest, food, establishment",https://www.ladidapeople.com/,https://www.facebook.com/ladidamelbourne,-37.8155252,144.9556294
Paris by Night,"level 1/89 City Rd, Southbank VIC 3006, Australia","bar, point_of_interest, establishment",https://www.parisbynightvic.com/,https://www.facebook.com/ParisByNightVictoria,-37.8224408,144.9650274
The Bottom End,"579 Little Collins St, Melbourne VIC 3000, Australia","bar, night_club, restaurant, food, point_of_interest, establishment",http://www.thebottomend.com.au/,https://www.facebook.com/thebottomendpub,-37.8144499,144.96629262606325
The Carlton Club,"193 Bourke St, Melbourne VIC 3000, Australia","night_club, bar, restaurant, point_of_interest, food, establishment",https://thecarlton.com.au/,https://www.facebook.com/thecarlton.com.au,-37.813096,144.9676453
The Emerson Rooftop Bar and Club,"141-145 Commercial Rd, South Yarra VIC 3141, Australia","bar, night_club, restaurant, food, point_of_interest, establishment",http://www.theemerson.com.au/,https://www.facebook.com/emersonmelb,-37.84659833,144.99210205798175
Mendoza's Social Club,"313a Flinders Ln, Melbourne VIC 3000, Australia","bar, point_of_interest, establishment",https://mirandabar.com.au/mendozas-social-club,,-37.82000502,144.95487466499833
Bar HumBug,"586 Little Bourke St, Melbourne VIC 3000, Australia","bar, restaurant, food, point_of_interest, establishment",https://www.facebook.com/profile.php?id=100089840090253,,-37.81543,144.9549167
Clique Lounge Bar,"1/26 King St, Melbourne VIC 3000, Australia","bar, point_of_interest, establishment",https://www.facebook.com/Allnightclique?mibextid=ZbWKwL,,-37.81977902,144.95736799080473
The Brunswick Club,"203 Sydney Rd, Brunswick VIC 3056, Australia","bar, point_of_interest, establishment",http://www.brunswickclub.com.au/,https://www.facebook.com/profile.php?id=100021420907691,-37.7725626,144.9610416
Trivia Night,"13/2 Elizabeth St, Melbourne VIC 3000, Australia","night_club, point_of_interest, establishment",http://trivia.net.au/,https://www.facebook.com/profile.php?id=61552953113217,-37.81232939,144.96236698023887
Circus Bar,"199 Commercial Rd, South Yarra VIC 3141, Australia","bar, night_club, point_of_interest, establishment",http://www.circusbar.com.au/,https://www.facebook.com/circus.bar.nightclub,-37.84659833,144.99210205798175
Club Retro,"383 Lonsdale St, Melbourne VIC 3000, Australia","night_club, bar, restaurant, food, point_of_interest, establishment",https://www.clubretro.com.au/,https://www.facebook.com/ClubRetro,-37.81183528,144.9635791947368
Tramp Bar,"20 King St, Melbourne VIC 3000, Australia","bar, night_club, point_of_interest, establishment",https://www.trampbar.com/,https://www.facebook.com/trampmelb,-37.7755832,144.9832884
One or Two,"18 Celestial Ave, Melbourne VIC 3000, Australia","bar, point_of_interest, establishment",http://oneortwo.com.au/,https://www.facebook.com/onetwo.southmelbourne,-37.81184833,144.96625489522341
Spice Market,"Beaney Ln, Melbourne VIC 3000, Australia","bar, night_club, point_of_interest, establishment",https://www.spicemarket.net.au/,https://www.facebook.com/SpiceMarketMelb,-37.81504953,144.9693940664099
Leighoak Club,"1555 Dandenong Rd, Oakleigh VIC 3166, Australia","bar, restaurant, point_of_interest, food, establishment",https://www.leighoak.com.au/,https://www.facebook.com/theleighoak,-37.89575465,145.0968969
House of Maximon,"Level 1/16 Corrs Ln, Melbourne VIC 3000, Australia","night_club, bar, point_of_interest, establishment",http://www.houseofmaximon.com/,https://www.facebook.com/houseofmaximon,-37.8111396,144.9684018
Two Wrongs,"637 Chapel St, South Yarra VIC 3141, Australia","bar, restaurant, food, point_of_interest, establishment",https://welcommegroup.com.au/two-wrongs,https://www.facebook.com/twowrongsmelbourne,-37.8379073,144.99548299207316
Naked For Satan,"285 Brunswick St, Fitzroy VIC 3065, Australia","restaurant, bar, point_of_interest, food, establishment",http://www.nakedforsatan.com.au/,https://www.facebook.com/N4S285BrunswickStreet,-37.7988408,144.9782369
Good Things Bar,"147 Commercial Rd, South Yarra VIC 3141, Australia","bar, point_of_interest, establishment",http://www.facebook.com/goodthingssouthyarra,,-37.84659833,144.99210205798175
Revellers Bar,"274 Chapel St, Prahran VIC 3181, Australia","bar, night_club, point_of_interest, establishment",https://revellersbar.com/,https://www.facebook.com/revellersbar,-37.84738505,144.9940494
Beneath Driver Lane,"Shop/3 Little Bourke St, Melbourne VIC 3000, Australia","bar, point_of_interest, establishment",http://driverlanebar.com/,https://www.facebook.com/beneathdriverlane,-37.81355072,144.96171479034044
Mango Lounge Bar,"17 Hall St, Moonee Ponds VIC 3039, Australia","bar, food, point_of_interest, establishment",http://www.mangoloungebar.com.au/,https://www.facebook.com/mangoloungebar,-37.76590252,144.92077525892725
Half Naked,"116a Hopkins St, Footscray VIC 3011, Australia","bar, restaurant, food, point_of_interest, establishment",http://www.halfnakedfootscray.com.au/,https://www.facebook.com/profile.php?id=61557752788819,-37.79985154,144.90036934179727
The Shady Lady,"36 Johnston St, Fitzroy VIC 3065, Australia","bar, point_of_interest, establishment",https://www.theshadylady.com.au/,https://www.facebook.com/TheShadyLadyFitzroy,-37.7982227,144.976029
Bond Melbourne,"24 Bond St, Melbourne VIC 3000, Australia","night_club, bar, point_of_interest, establishment",http://www.bondmelbourne.com.au/,https://www.facebook.com/bondmelb,-37.9926474,145.1038131
New Guernica,"64 Smith St, Collingwood VIC 3066, Australia","night_club, point_of_interest, establishment",http://www.newguernica.com.au/,https://www.facebook.com/NewGuernica,-37.80624775,144.98331211946754
Glamorama Nightclub,"393 Brunswick St, Fitzroy VIC 3065, Australia","night_club, bar, point_of_interest, establishment",http://www.glamoramabar.com/,https://www.facebook.com/luxmelb,-37.79705404,144.97869049756974
Brown Alley,"585 Lonsdale St, Melbourne VIC 3000, Australia","night_club, point_of_interest, establishment",http://www.brownalley.com/,https://www.facebook.com/brownalleymelbourne,-37.8146155,144.9552495
Laundry Bar,"50 Johnston St, Fitzroy VIC 3065, Australia","bar, point_of_interest, establishment",http://laundrybar.com.au/?utm_source=google&utm_medium=wix_google_business_profile&utm_campaign=13538433684496182383,https://www.facebook.com/thelaundrybar,-37.7983139,144.9764962
Bar Up,"322 Chapel St, Prahran VIC 3181, Australia","bar, point_of_interest, establishment",https://www.facebook.com/BarUp322/,https://www.facebook.com/profile.php?id=100068613190041,-37.84738505,144.9940494
Khokolat Bar,"43 Hardware Ln, Melbourne VIC 3000, Australia","night_club, bar, point_of_interest, establishment",http://www.kbar.com.au/,https://www.facebook.com/kbarsaturdays,-37.8134633,144.9610875
On The Rocks Bar Crawl Melbourne,"The Joint, 35 Elizabeth St, Melbourne VIC 3000, Australia","night_club, point_of_interest, establishment",http://www.ontherocksbarcrawl.com/melbourne,https://www.facebook.com/melbbarcrawl,-37.8172989,144.9643996
Lucky Thursdays,"170 Russell St, Melbourne VIC 3000, Australia","night_club, bar, restaurant, point_of_interest, food, establishment",http://luckythursdays.com.au/,https://www.facebook.com/luckythursdaysxox,-37.8120109,144.9679369
Platform One,"375 Flinders St, Melbourne VIC 3000, Australia","night_club, bar, point_of_interest, establishment",http://www.platformone.com.au/,https://www.facebook.com/platformone,-37.819244,144.962116
StoryVille,"185 Lonsdale St, Melbourne VIC 3000, Australia","bar, point_of_interest, establishment",http://www.storyvillemelbourne.com.au/,https://www.facebook.com/storyvillemelbourne,-37.81117675,144.9668442406415
Club Pandora,"127 Dorcas St, South Melbourne VIC 3205, Australia","night_club, bar, point_of_interest, establishment",,https://www.facebook.com/PandoraMelb,-37.83203525,144.96391791498678
Secret Garden Bar,"7/60 Fitzroy St, St Kilda VIC 3182, Australia","bar, night_club, restaurant, point_of_interest, food, establishment",http://secretgardenbar.com/,https://www.facebook.com/secretgardenbar,-37.85747233,144.98140261298386
Inflation Entertainment Complex,"60 King St, Melbourne VIC 3000, Australia","night_club, point_of_interest, establishment",,https://www.facebook.com/topyardfunctionvenue,-37.8188809,144.9571785
Scarlett Saturdays,"425 Collins St, Melbourne VIC 3000, Australia","night_club, bar, point_of_interest, establishment",http://www.scarlettsaturdays.com.au/,https://www.facebook.com/scarlettsaturdays,-37.8174017,144.9605481
Bar Ampere,"16 Russell Pl, Melbourne VIC 3000, Australia","bar, point_of_interest, establishment",http://www.barampere.com/,https://www.facebook.com/profile.php?id=100051581513566,-37.8135603,144.9673858
Heartbreaker,"234A Russell St, Melbourne VIC 3000, Australia","bar, point_of_interest, establishment",https://heartbreakerbar.com.au/,https://www.facebook.com/heartbreakerbar,-37.8109325,144.9674866
onesixone,"161 High St, Prahran VIC 3181, Australia","night_club, bar, point_of_interest, establishment",http://www.onesixone.com.au/,https://www.facebook.com/onesixonemelbourne,-37.85425256,145.0112666323418
Factory Sound,"75-85 York St, South Melbourne VIC 3205, Australia","electronics_store, home_goods_store, store, point_of_interest, establishment",http://www.factorysound.com/,https://www.facebook.com/FactorySound,-37.83251315,144.95353420025518
DJ City Richmond Melbourne,"14/2 Bromham Pl, Richmond VIC 3121, Australia","electronics_store, home_goods_store, store, point_of_interest, establishment",https://djcity.com.au/?utm_source=google&utm_medium=organic&utm_campaign=gmb-richmond,https://www.facebook.com/djcity.com.au,-37.81435805,144.99818190561467
Studio 52 / Empire Music Studios,"9 Northern Rd, Heidelberg West VIC 3081, Australia","store, point_of_interest, establishment",http://www.studio52.com.au/,https://www.facebook.com/PaulHigginsEmpire,-37.72982527,145.0520267423926
Club Voltaire,"1st Floor/14 Raglan St, North Melbourne VIC 3051, Australia","bar, point_of_interest, establishment",https://www.clubvoltaire.com.au/,https://www.facebook.com/clubvoltairemelb,-37.8042869,144.9501372
Centre Com Richmond,"447-457 Victoria St, Richmond VIC 3121, Australia","electronics_store, store, point_of_interest, establishment",http://www.centrecom.com.au/,https://www.facebook.com/centrecom,-37.81155615,145.01029805000002
Co.Lab Audio Visual & Production Services,"711 High St, Kew East VIC 3102, Australia","electronics_store, home_goods_store, point_of_interest, store, establishment",http://colabav.com.au/,https://www.facebook.com/profile.php?id=100032304414965,-37.79984654,145.04945464813892
Inkerman Hotel,"375 Inkerman St, St Kilda East VIC 3183, Australia","liquor_store, bar, store, point_of_interest, establishment",https://www.inkermanhotel.com.au/,https://www.facebook.com/inkermanhotel,-37.866444,144.99799715146656
Coleman's Music Melbourne CBD,"105 Elizabeth St, Melbourne VIC 3000, Australia","store, point_of_interest, establishment",http://colemansmusic.com.au/,https://www.facebook.com/CranMusMelbourne,-37.8157727,144.963625
Melbourne Music Centre,"525 North Rd, Ormond VIC 3204, Australia","store, point_of_interest, establishment",https://www.melbournemusiccentre.com.au/,https://www.facebook.com/melbournemusic.centre,-37.904695,145.0456194280798
Living Music Highpoint,"L2-2154, 120-200 Rosamond Rd, Maribyrnong VIC 3032, Australia","store, point_of_interest, establishment",https://www.livingmusicstores.com/,https://www.facebook.com/livingmusicllc,"-37.77346635246669, 144.88867643793395",
Angkor Music,"4/6 Drake Blvd, Altona VIC 3018, Australia","store, point_of_interest, establishment",http://www.angkormusic.com.au/?utm_source=google&utm_medium=organic&utm_campaign=gmb,https://www.facebook.com/angkormusic.com.au,-37.85268152,144.8304265996083
World of Music,"809 Nepean Hwy, Bentleigh VIC 3204, Australia","point_of_interest, store, establishment",https://www.worldofmusic.com.au/,https://www.facebook.com/profile.php?id=61555004760941,-37.9239264,145.0262747
Diversified Australia,"199 Heidelberg Rd, Northcote VIC 3070, Australia","electronics_store, home_goods_store, store, point_of_interest, establishment",,https://www.facebook.com/profile.php?id=100083696072116,-37.78419988,145.01139216103863
Heroes Bar Melbourne,"188 Bourke St, Melbourne VIC 3000, Australia","night_club, bar, point_of_interest, establishment",https://www.heroesbar.com.au/,https://www.facebook.com/heroesmelbourne,-37.812681,144.967523
Jankara Karaoke,"300 Russell St, Melbourne VIC 3000, Australia","night_club, bar, point_of_interest, establishment",https://www.jankara.com.au/,https://www.facebook.com/jankara.karaoke.bar,-37.80939994,144.96681451621717
Ms. Carlisles - Bar & Restaurant,"137 Carlisle St, Balaclava VIC 3183, Australia","bar, restaurant, food, point_of_interest, establishment",http://www.mscarlisles.com.au/,https://www.facebook.com/mscarlisles,-37.86924661,144.9973483358296
PC DIY Computers,"2 Cambridge St, Box Hill VIC 3128, Australia","electronics_store, point_of_interest, store, establishment",http://www.pcdiy.com.au/,https://www.facebook.com/pcdiyau,-37.82070627,145.1211959553834
Chasers Nightclub,"386 Chapel St, South Yarra VIC 3141, Australia","night_club, bar, point_of_interest, establishment",http://chasersvenue.com.au/,https://www.facebook.com/ChasersVenueSouthYarra,-37.8459118,144.9945123
Altona Sports Club,"11 Altona Rd, Altona VIC 3018, Australia","bar, restaurant, point_of_interest, food, establishment",http://www.altonasportsclub.com.au/,https://www.facebook.com/thealtonasportsclub,-37.85754867,144.85121805353086
Punters Club,"376 Brunswick St, Fitzroy VIC 3065, Australia","bar, point_of_interest, establishment",https://puntersclubfitzroy.com/,https://www.facebook.com/puntersclubfitzroy,-37.7960561,144.9790327
Sub Club Melbourne,"Flinders Ct, Melbourne VIC 3000, Australia","night_club, point_of_interest, establishment",https://www.subclubmelbourne.com/,https://www.facebook.com/subclubmelbourne,-37.81776587,144.96433104920948
Uptown Jazz Cafe,"1/177 Brunswick St, Fitzroy VIC 3065, Australia","night_club, bar, point_of_interest, establishment",http://www.uptownjazzcafe.com/,https://www.facebook.com/profile.php?id=100063907940187,-37.79705404,144.97869049756974
REVEL NIGHTCLUB MELBOURNE,"52 Albert Rd, South Melbourne VIC 3205, Australia","night_club, bar, point_of_interest, establishment",https://www.instagram.com/revelnightclub_mel/?locale=it_IT,https://www.facebook.com/profile.php?id=100083230185698,-37.83413675,144.9709914787598
Pulp,"18 Corrs Ln, Melbourne VIC 3000, Australia","night_club, point_of_interest, establishment",http://www.pulpclub.com.au/,https://www.facebook.com/PulpClubMelbourne,-37.8112373,144.96831147750285
Key Club,"Level 2/117 Lonsdale St, Melbourne VIC 3000, Australia","night_club, point_of_interest, establishment",http://www.keyclub.com.au/,https://www.facebook.com/keyclubmelbourne,-37.8105172,144.9688196
The Central Club Hotel,"293 Swan St, Richmond VIC 3121, Australia","bar, point_of_interest, establishment",https://www.facebook.com/centralclubhotel/,https://www.facebook.com/centralclubhotel,-37.82610566,145.00277291052632
Club Italia Sporting Club,"128/132 Furlong Rd, St Albans VIC 3021, Australia","bar, restaurant, point_of_interest, food, establishment",https://www.clubitaliasportingclub.com.au/,https://www.facebook.com/clubitaliasc,-37.76050055,144.81951670374514
Lido Jazz Room,"675 Glenferrie Rd, Hawthorn VIC 3122, Australia","point_of_interest, establishment",https://www.lidocinemas.com.au/events/jazz-room,https://www.facebook.com/lidojazzroom,-37.8205529,145.0355738
Blackcat Fitzroy,"252 Brunswick St, Fitzroy VIC 3065, Australia","bar, night_club, cafe, point_of_interest, food, store, establishment",http://www.blackcatfitzroy.com/,https://www.facebook.com/Blackcatfitzroy,-37.799889,144.978373
Melbourne International Jazz Festival,"Meat Market, 5 Blackwood St, North Melbourne VIC 3051, Australia","point_of_interest, establishment",http://melbournejazz.com/,https://www.facebook.com/melbournejazzfestival,-37.8016584,144.954374
Candela Nuevo,"2 Queen St, Melbourne VIC 3000, Australia","bar, point_of_interest, food, store, establishment",http://www.candelanuevo.com.au/,https://www.facebook.com/candelanuevoclub,-37.81859715,144.96271339793248
Caz Reitop's Dirty Secrets,"80 Smith St, Collingwood VIC 3066, Australia","bar, point_of_interest, establishment",http://www.crds.com.au/,https://www.facebook.com/cazreitopsdirtysecrets,-37.8059236,144.9832619
Juliet Melbourne,"Basement, 37/41 Little Bourke St, Melbourne VIC 3000, Australia","bar, restaurant, point_of_interest, food, establishment",https://julietmelbourne.com.au/,https://www.facebook.com/comedyatjulietmelbourne,-37.8108154,144.9714971
Jimmy Hornet Magazine,"229A Swan St, Richmond VIC 3121, Australia","point_of_interest, establishment",https://jimmyhornet.com/,https://www.facebook.com/JimmyHornetMagazine,-37.82682544,145.00842145649344
Radium,"57 Burwood Rd, Hawthorn VIC 3122, Australia","bar, point_of_interest, establishment",http://radiumbar.com.au/,https://www.facebook.com/profile.php?id=100063703143647,-37.82129333,145.02459744583334
The Black Rabbit,"85 Queen St, Melbourne VIC 3000, Australia","bar, night_club, point_of_interest, establishment",https://blackrabbitmelbourne.com.au/,https://www.facebook.com/blackrabbitmelbourne,-37.81649435,144.96131887433728
Father's Office Speakeasy Bar and Restaurant,"249 Little Lonsdale St, Melbourne VIC 3000, Australia","restaurant, meal_takeaway, bar, point_of_interest, food, establishment",http://fathersoffice.com.au/,https://www.facebook.com/fathersofficemelbourne,-37.80914111,144.96917934305625
The Mill Restaurant,"71 Hardware Ln, Melbourne VIC 3000, Australia","restaurant, bar, food, point_of_interest, establishment",https://www.themillrestaurant.com.au/,https://www.facebook.com/themillmelbourne,-37.8131871,144.9609388
Performance Academy Of Dancing,"187 Wickham Rd, Moorabbin VIC 3189, Australia","night_club, bar, school, point_of_interest, establishment",http://www.performanceacademyofdancing.com/,https://www.facebook.com/performanceacademyofdancing,-37.9451354,145.0426251
Palermo,"401 Little Bourke St, Melbourne VIC 3000, Australia","bar, restaurant, food, point_of_interest, establishment",https://www.palermo.melbourne/?utm_source=google&utm_medium=gmb,https://www.facebook.com/Palermo.Melbourne,-37.8138494,144.9610097
Tipo 00,"361 Little Bourke St, Melbourne VIC 3000, Australia","bar, restaurant, food, point_of_interest, establishment",https://www.tipo00.com.au/,https://www.facebook.com/tipo00melbourne,-37.81366055,144.96202880909428
The Flying Saucer Club,"979-985 Nepean Hwy, Moorabbin VIC 3189, Australia","point_of_interest, establishment",http://www.flyingsaucerclub.com.au/,https://www.facebook.com/flyingsaucerpresentsau,-37.9369432,145.0373674
Merri-Bek City Band,"16-22 Cross St, Brunswick East VIC 3057, Australia","point_of_interest, establishment",https://www.merri-bekcityband.com/,https://www.facebook.com/profile.php?id=100090707836536,-37.76929805,144.97458402017463
Jam Melbourne,,"point_of_interest, establishment",http://bridgetabeckett.com/hoodjam,https://www.facebook.com/JamMelbourne,46.3144754,11.0480288
George Trimmer Band,"144 Melville Rd, Pascoe Vale VIC 3044, Australia","point_of_interest, store, establishment",http://www.georgetrimmerband.com/,https://www.facebook.com/thegeorgetrimmerband,-37.74953737,144.94644916615485
InkaSounds Band,"Keilor Park Dr, Tullamarine VIC 3034, Australia","point_of_interest, establishment",http://inkasounds.com/,https://www.facebook.com/TheSalvationArmyMSB,-37.71406522,144.85922339005728
Lark Music,"9 Sunhill Cres, Ardeer VIC 3022, Australia","point_of_interest, store, establishment",https://larkmusic.com.au/,https://www.facebook.com/larkmusic,-37.77469297,144.80279533552775
Orpheus Entertainment - Melbourne Greek Italian English Band/MC/DJ packages.,"Bourke St, Melbourne VIC 3004, Australia","point_of_interest, establishment",https://www.orpheusentertainment.com.au/,https://www.facebook.com/orpheusbandmelbourne,-37.81274914,144.96849511976006
Darebin City Brass,"Mary Street, Cramer St, Preston VIC 3072, Australia","point_of_interest, establishment",http://darebincitybrass.com/,https://www.facebook.com/DarebinCityBrass,-37.7403983,145.002136
Hobsons Bay City Band Inc.,"Newport VIC 3028, Australia","point_of_interest, establishment",http://www.hbcb.org.au/,https://www.facebook.com/HobsonsBayCityBand,-37.8423064,144.88356223970217
Stonnington City Brass,"Rear, 1255 High St, Malvern VIC 3144, Australia","point_of_interest, establishment",http://stonningtoncitybrass.org.au/,https://www.facebook.com/StonningtonCityBrass,-37.856025,145.0318652
Something Blue Band Melbourne,"6/201 Carlisle St, Balaclava VIC 3183, Australia","point_of_interest, establishment",https://www.somethingblueband.com.au/,https://www.facebook.com/somethingbluebandmelbourne,-37.86924661,144.9973483358296
Melbourne Rainbow Band,"301 High St, Prahran VIC 3181, Australia","point_of_interest, establishment",https://mrb.org.au/,https://www.facebook.com/profile.php?id=100044557384264,-37.85425256,145.0112666323418
Melbourne Cricket Ground,"Brunton Ave, Richmond VIC 3002, Australia","stadium, tourist_attraction, point_of_interest, establishment",http://www.mcg.org.au/,https://www.facebook.com/MelbourneCricketGround,-37.82314275,144.9890485
Marvel Stadium,"740 Bourke St, Docklands VIC 3008, Australia","stadium, point_of_interest, establishment",https://marvelstadium.com.au/the-stadium/,https://www.facebook.com/marvelstadiumau,-37.816529,144.94751697668812
AAMI Park,"Olympic Blvd, Melbourne VIC 3004, Australia","stadium, point_of_interest, establishment",http://www.aamipark.com.au/,https://www.facebook.com/AAMIParkMelbourne,-37.823164,144.9766079
Keilor Basketball Netball Stadium,"Stadium Dr, Keilor Park VIC 3042, Australia","stadium, point_of_interest, establishment",https://www.brimbank.vic.gov.au/explore-brimbank/sport-and-fitness/sport-and-fitness-facilities/keilor-basketball-netball-stadium,https://www.facebook.com/KeilorBasketballNetballStadium,-37.71397544,144.85424970601656
Victoria University Community Sports Stadium,"417 Barkly St, Footscray VIC 3011, Australia","stadium, point_of_interest, establishment",,https://www.facebook.com/victoria.university,-37.79902293,144.8929566901096
Coburg Basketball Stadium,"25 Outlook Rd, Coburg North VIC 3058, Australia","stadium, point_of_interest, establishment",https://coburgbasketballstadium.com.au/,https://www.facebook.com/profile.php?id=100057621152277,-37.73385809,144.9768836763684
Nets Stadium Banyule,"2 Somers Ave, Macleod VIC 3085, Australia","stadium, point_of_interest, establishment",https://www.banyule.vic.gov.au/Banyule-leisure/Nets-Stadium-Banyule,https://www.facebook.com/NetsStadium,-37.72457935,145.07012833542808
John Cain Arena,"Olympic Blvd, Melbourne VIC 3001, Australia","point_of_interest, establishment",http://johncainarena.com.au/,https://www.facebook.com/JohnCainArena,-37.82305598,144.97619022672723
Shane Warne Stand,"5XHM+RR, East Melbourne VIC 3002, Australia","stadium, point_of_interest, establishment",,https://www.facebook.com/officialshanewarne,-37.8204252,144.984566
Montmorency Secondary College Basketball Stadium,"27 Simms Rd, Montmorency VIC 3094, Australia","stadium, point_of_interest, establishment",,https://www.facebook.com/montysc,-37.7120528,145.1140704
Margaret Court Arena,"Olympic Blvd, Melbourne VIC 3001, Australia","point_of_interest, establishment",http://www.margaretcourtarena.com.au/,https://www.facebook.com/MCourtArena,-37.82305598,144.97619022672723
Rod Laver Arena,"200 Batman Ave, Melbourne VIC 3004, Australia","point_of_interest, establishment",http://www.rodlaverarena.com.au/,https://www.facebook.com/RodLaverArena,-37.8215688,144.9785875
St Kevin's Sports Fields,"1002 Crescent Rd, Glen Iris VIC 3146, Australia","point_of_interest, establishment",http://www.stkevins.vic.edu.au/,https://www.facebook.com/skcsports,-37.8480218,145.04691673494034
Ballers Arena,"2/117 Cochranes Rd, Moorabbin VIC 3189, Australia","stadium, point_of_interest, establishment",http://ballersarena.com.au/,https://www.facebook.com/ballersarenaau,-37.94249028,145.06473102725815
The Home of The Matildas & Victorian State Football Centre,"Sports Dr, Bundoora VIC 3083, Australia","night_club, bar, restaurant, food, point_of_interest, establishment",,https://www.facebook.com/profile.php?id=100075538760127,-37.72530985,145.04511353624244
Marvel Stadium Function Venues Docklands,"740 Bourke St, Docklands VIC 3008, Australia","point_of_interest, establishment",https://marvelstadium.com.au/,https://www.facebook.com/marvelstadiumau,-37.816529,144.94751697668812
Altona Sports Centre,"1 Andrew Park Dr, Altona Meadows VIC 3028, Australia","point_of_interest, establishment",https://altonasportscentre.com.au/,https://www.facebook.com/altonasportscentre,-37.88129715,144.7964781086453
"Avenger Park, Avondale FC","476 Brunswick Rd, Parkville VIC 3055, Australia","point_of_interest, establishment",https://www.avondalefc.com.au/,https://www.facebook.com/AvondaleFC84,-37.77455899,144.93918947093908
Medallion Club,"740 Bourke St, Docklands VIC 3008, Australia","point_of_interest, establishment",https://marvelstadium.com.au/members/medallion-club/,,-37.816529,144.94751697668812
O'Brien Icehouse,"Ground/105 Pearl River Rd, Docklands VIC 3008, Australia","point_of_interest, establishment",https://www.obrienicehouse.com.au/,https://www.facebook.com/OBrienIcehouse,-37.8118593,144.9356358
Rod Laver arena,"118 Kavanagh St, Southbank VIC 3006, Australia","point_of_interest, establishment",,https://www.facebook.com/RodLaverArena,-37.82631601,144.9617140574567
The Gaming Arena,"123 Bakers Rd, Coburg North VIC 3058, Australia","store, point_of_interest, establishment",http://www.thegamingarena.com.au/,https://www.facebook.com/thegamingarena.hq,-37.72715826,144.96115535488718
Aquarena Aquatic and Leisure Centre,"139/153 Williamsons Rd, Templestowe Lower VIC 3108, Australia","point_of_interest, establishment",https://activemanningham.com.au/aquarena/?utm_source=google&utm_medium=organic&utm_campaign=gmb-listing,https://www.facebook.com/aquarenamanningham,-37.77208692,145.12826349550502
Rod Laver Arena/MCG,"Melbourne VIC 3004, Australia","transit_station, point_of_interest, establishment",,https://www.facebook.com/RodLaverArena,-37.8142454,144.9631732
7C-MCG - John Cain Arena/Melbourne Park,"Melbourne VIC 3004, Australia","transit_station, point_of_interest, establishment",,https://www.facebook.com/JohnCainArena,-37.8142454,144.9631732
Bright Arena,"level 7/276 Flinders St, Melbourne VIC 3000, Australia","point_of_interest, establishment",https://www.brightarena.com/,https://www.facebook.com/BrightArena,-37.817818,144.9651723
Epic Arena,"433-435 Melbourne Rd, Newport VIC 3015, Australia","bar, point_of_interest, establishment",http://www.epicarena.com.au/,https://www.facebook.com/epicarena.com.au,-37.8474787,144.8865918
The VR Arena,"30 Alexandra Parade, Clifton Hill VIC 3068, Australia","point_of_interest, store, establishment",,https://www.facebook.com/VRArenaPvP,-37.79413864,144.98972976327187
Game On Indoor Sports,"10-12 Carrick Dr, Tullamarine VIC 3043, Australia","point_of_interest, establishment",https://gameonindoor.com.au/,https://www.facebook.com/gameonindoorsports,-37.70264118,144.8829547289411
Box Hill Action Indoor Sports,"3/9 Clarice Rd, Box Hill South VIC 3128, Australia","point_of_interest, establishment",http://boxhillindoorsports.com.au/,https://www.facebook.com/actionsportsboxhill,-37.83495464,145.13301570527753
CENTREPIECE at Melbourne Park,"Olympic Blvd, Melbourne VIC 3000, Australia","point_of_interest, establishment",https://www.centrepiecemelbourne.com/,https://www.facebook.com/centrepiecemelbourne,-37.82410511,144.98466604845774
iceHQ,"1 Blake St, Reservoir VIC 3073, Australia","point_of_interest, establishment",http://www.icehq.com.au/,https://www.facebook.com/iceheadquarters,-37.7314154,145.03178994980806
Tower Tag Arena Melbourne,"73 Pelham St, Carlton VIC 3053, Australia","point_of_interest, establishment",https://towertag.com.au/,https://www.facebook.com/TowerTagMelbourne,-37.80229145,144.9613931
Chelsea Arena Artistry (Brow & Makeup Studio),"60 Puckle St, Moonee Ponds VIC 3039, Australia","beauty_salon, point_of_interest, store, establishment",http://www.chelseaarenaartistry.com.au/,https://www.facebook.com/chelseaarenamua,-37.76680381,144.92274065714284
SERIES FUTSAL,"24/391 Settlement Rd, Thomastown VIC 3074, Australia","point_of_interest, establishment",https://seriesfutsal.com/,https://www.facebook.com/futsalmelbs,-37.69171956,145.02915335986106
Olympic Ice Skating Centre,"1080 Centre Rd, Oakleigh South VIC 3167, Australia","point_of_interest, establishment",http://www.icerink.com.au/,https://www.facebook.com/OlympicIceSkatingCentre,-37.92643995,145.0937797727106
Fortress Melbourne,"Shop 25/23 Caledonian Ln, Melbourne VIC 3000, Australia","restaurant, bar, food, point_of_interest, establishment",https://www.fortress.games/,https://www.facebook.com/FortressMelb,-37.8120357,144.9642299
Ernie Cropley Sports Pavilion,"Morrison Cl, Carlton North VIC 3054, Australia","point_of_interest, establishment",https://sport.unimelb.edu.au/court-venue-hire/function-spaces,,-37.792517,144.96197048693318
La Trobe University Sports Pavillion,"Sports Fields Pavillion, Bundoora VIC 3083, Australia","point_of_interest, establishment",,https://www.facebook.com/latrobe,-37.7231325,145.0422049
The Meadows Conference and Events Centre,"80 Northcorp Blvd, Broadmeadows VIC 3047, Australia","point_of_interest, establishment",http://www.themeadowsevents.com.au/,,-37.68660023,144.9494217357594
Lakeside Banquet & Convention Centre,"65 Melton Hwy, Taylors Lakes VIC 3038, Australia","point_of_interest, establishment",http://www.weddings-melbourne.com.au/,https://www.facebook.com/lakesidreception,-37.69690469,144.7787941519821
Melbourne Convention and Exhibition Centre (MCEC),"1 Convention Centre Pl, South Wharf VIC 3006, Australia","point_of_interest, establishment",http://www.mcec.com.au/,https://www.facebook.com/themcec,-37.82521828,144.95086360317606
Ultima Function Centre,"Cnr of Keilor Park Drive &, Ely Ct, Keilor Park VIC 3036, Australia","food, point_of_interest, establishment",https://ultimafunction.com.au/?utm_source=gbp&utm_medium=organic&utm_campaign=local,https://www.facebook.com/UltimaFunctionCentre,-37.7270202,144.8506927
75 Reid St Venue Hire,"75 Reid St, Fitzroy North VIC 3068, Australia","point_of_interest, establishment",http://www.75reidst.com.au/,https://www.facebook.com/75reidst,-37.7854317,144.980757
Lakeside Pavilion,"36 Lakeside Dr, Melbourne VIC 3206, Australia","point_of_interest, establishment",http://lakesidepavilion.com.au/?utm_source=google&utm_medium=organic&utm_campaign=gmb&utm_term=plcid_15042257836301624946,https://www.facebook.com/melbournepav3031,-37.8384315,144.96866938391875
Melbourne Event Group,"2 Wallen Rd, Hawthorn VIC 3122, Australia","point_of_interest, establishment",https://melbourneeventgroup.com.au/,https://www.facebook.com/melbourneeventgroup,-37.82687625,145.0242253818521
Altona Reception,"272 Millers Rd, Altona North VIC 3025, Australia","point_of_interest, establishment",http://www.altonareception.com.au/,https://www.facebook.com/profile.php?id=100063570820901,-37.84204185,144.8452463577225
"Q Events - Event Space Melbourne, Wedding Venue & Corporate Events Venue","123 Queen St, Melbourne VIC 3000, Australia","point_of_interest, food, establishment",https://www.qevents.com.au/,,-37.8154911,144.9606874
Collins Square Events Centre,"Level 5, Tower 2/727 Collins St, Docklands VIC 3008, Australia","point_of_interest, establishment",https://www.collinssquare.com.au/events-meetings/,https://www.facebook.com/collinssquaremelbourne,-37.8205359,144.9503586
Melbourne City Conference Centre (MCCC),"333 Swanston St, Melbourne VIC 3000, Australia","point_of_interest, establishment",https://www.melbourneccc.com.au/,https://www.facebook.com/melbourneccc,-37.810546,144.963903
The Centre Ivanhoe,"275 Heidelberg Rd, Ivanhoe VIC 3079, Australia","point_of_interest, establishment",,https://www.facebook.com/TheCentreIvanhoe,-37.7655968,145.04539011210994
The Views LSV,"200 The Blvd, Port Melbourne VIC 3207, Australia","point_of_interest, establishment",https://theviewslsv.com.au/?utm_source=GMB&utm_medium=Organic&utm_campaign=Port%20Melbourne,https://www.facebook.com/TheViewsLSV,-37.8399901,144.9152934623737
Baba,"724 Centre Rd, Bentleigh East VIC 3165, Australia","point_of_interest, establishment",http://www.boosa.com.au/,https://www.facebook.com/BABACafeRestaurantBar,-37.9211967,145.0582241373168
The Wheeler Centre,"176 Little Lonsdale St, Melbourne VIC 3000, Australia","point_of_interest, establishment",https://www.wheelercentre.com/,https://www.facebook.com/wheelercentre,-37.8101765,144.9652219
The Venue Zone,"1/434 St Kilda Rd, Melbourne VIC 3004, Australia","lodging, point_of_interest, establishment",http://www.thevenuezone.com.au/,https://www.facebook.com/theglowzonemelbourne,-37.8487508,144.98019630238343
Whitestone,"936 North Rd, Bentleigh East VIC 3165, Australia","point_of_interest, establishment",http://www.whitestoneevents.com.au/,https://www.facebook.com/whitestoneeventsvenue,-37.90620488,145.0576513692702
CIEL The Venue,"400 City Rd, Southbank VIC 3006, Australia","point_of_interest, establishment",https://atlanticgroup.com.au/venues/ciel-the-venue/,https://www.facebook.com/ciel.thevenue,-37.8292021,144.9557614
Metropolis Events,"Upper Level, Southgate Shopping Precinct, Southbank VIC 3006, Australia","food, point_of_interest, establishment",https://www.metropolisevents.com.au/,https://www.facebook.com/metropoliseventsmelb,-37.8199893,144.9670463
Royal Exhibition Building,"9 Nicholson St, Carlton VIC 3053, Australia","tourist_attraction, point_of_interest, establishment",https://museumsvictoria.com.au/reb/,https://www.facebook.com/RoyalExhibitionBuilding,-37.80466685,144.9714669305319
Stars International Reception Centre,"1C Bell St, Preston VIC 3072, Australia","point_of_interest, establishment",http://www.starsinternational.com.au/,https://www.facebook.com/profile.php?id=100070376374048,-37.74515523,145.00322288561034
Fed Square,"Cnr Princes Walk &, Russell St Ext, Melbourne VIC 3000, Australia","point_of_interest, establishment",https://www.zincfedsq.com.au/?utm_source=gmb&utm_medium=organic&utm_campaign=gmb,https://www.facebook.com/FedSquare,-37.8182754,144.9702716
Uni Hill Conference Centre,"30 Graduate Rd, Bundoora VIC 3083, Australia","point_of_interest, establishment",http://unihillconference.com.au/,https://www.facebook.com/unihillconference,-37.68355668,145.07085431673335
Showtime Events Centre,"61 S Wharf Promenade, South Wharf VIC 3006, Australia","point_of_interest, establishment",http://www.showtimeeventgroup.com.au/,https://www.facebook.com/showtimeeventgroup,-37.82388931,144.95485167593887
Leonda By The Yarra,"2 Wallen Rd, Hawthorn VIC 3122, Australia","point_of_interest, establishment",http://www.leondabytheyarra.com.au/,https://www.facebook.com/leondabytheyarra,-37.82687625,145.0242253818521
Pride Conference & Event Management,"664 Hawthorn Rd, Brighton East VIC 3187, Australia","point_of_interest, establishment",,https://www.facebook.com/PrideConference,-37.90185957,145.01909032863915
Hyatt Place Event Centre,"1 Larkin Blvd, Essendon Fields VIC 3041, Australia","point_of_interest, establishment",https://www.hyatt.com/en-US/hotel/australia/hyatt-place-melbourne-essendon-fields/melze/special-events,https://www.facebook.com/HyattPlace,-37.7245027,144.8928744
Melrose Events,"2 Carrick Dr, Tullamarine VIC 3043, Australia","point_of_interest, establishment",http://www.melroseevents.com.au/,https://www.facebook.com/melroseeventsaustralia,-37.70264118,144.8829547289411
Vue Events,"55/525 Collins St, Melbourne VIC 3000, Australia","point_of_interest, establishment",http://www.vueevents.com.au/,https://www.facebook.com/VueEvents,-37.81850156,144.95593539893343
Melbourne Venues,"2905/265 Exhibition St, Melbourne VIC 3000, Australia","point_of_interest, establishment",,https://www.facebook.com/MelbVenues,-37.807285,144.9687685
Treacy Centre,"126 The Avenue, Parkville VIC 3052, Australia","point_of_interest, establishment",http://treacycentre.com.au/?utm_source=google&utm_medium=maps&utm_campaign=google+maps,https://www.facebook.com/TreacyCentre,-37.79109243,144.9576181516376
Encore St Kilda Beach,"10/18 Jacka Blvd, St Kilda VIC 3182, Australia","food, point_of_interest, establishment",https://encorestkilda.com.au/,https://www.facebook.com/EncoreStKilda,-37.8656234,144.9720318
CERES Environment Park,"Stewart St & Roberts St East, Brunswick VIC 3056, Australia","point_of_interest, establishment",http://ceres.org.au/venues,https://www.facebook.com/CERES.Environment.Park,-37.765454,144.9831564
Second Story,"222A Johnston St, Collingwood VIC 3066, Australia","gym, storage, health, point_of_interest, establishment",http://www.secondstory.com.au/,https://www.facebook.com/secondstorylovesyou,-37.79913366,144.9859876802753
San Remo Ballroom,"365 Nicholson St, Carlton North VIC 3054, Australia","point_of_interest, establishment",http://srbevents.melbourne/,https://www.facebook.com/sanremoballroom,-37.7929945,144.9756347
Bowery Theatre and St Albans Community Centre,"33 Princess Street, St Albans VIC 3021, Australia","point_of_interest, establishment",http://www.creativebrimbank.com.au/,https://www.facebook.com/TheBoweryTheatre,-37.74529395,144.80238778071427
Manningham Function Centre,"1/699 Doncaster Rd, Doncaster VIC 3108, Australia","point_of_interest, establishment",http://www.manninghamfunctioncentre.com.au/,https://www.facebook.com/manninghamfunctioncentre,-37.78662119,145.14089074213476
Cliftons Melbourne - Freshwater Place,"level 18/2 Southbank Blvd, Southbank VIC 3006, Australia","point_of_interest, establishment",https://cliftons.com/city/melbourne-freshwater,,-37.8220846,144.9629896
Ego Expo Australia,"3 Blackwood St, North Melbourne VIC 3051, Australia","point_of_interest, establishment",http://www.egoexpo.com.au/,https://www.facebook.com/egoexpoofficial,-37.801596,144.95430739598993
Victoria Pavilion,"Melbourne Showgrounds, Epsom Rd, Ascot Vale VIC 3032, Australia","point_of_interest, establishment",https://victoriapavilion.com.au/,https://www.facebook.com/profile.php?id=100077534031755,-37.7815564,144.9137808
Boulevard Pavilion,"Boulevard Pavilion, Flemington VIC 3031, Australia","point_of_interest, establishment",https://www.melbourneshowgrounds.com/spaces/04-boulevard-pavilion/,https://www.facebook.com/melbournepav3031,-37.7827322,144.9141313
ACMI Cinemas,"ACMI, Federation Square Swanston St & Flinders St, Melbourne VIC 3000, Melbourne VIC 3004, Australia","movie_theater, point_of_interest, establishment",https://www.acmi.net.au/whats-on/films/,https://www.facebook.com/profile.php?id=100080259667293,-37.8176502,144.9690574
Sun Theatre,"8 Ballarat St, Yarraville VIC 3013, Australia","movie_theater, point_of_interest, establishment",http://www.suntheatre.com.au/,https://www.facebook.com/pages/Sun-Theatre/109349392424710,-37.81596235,144.89065051933142
HOYTS Melbourne Central,"Cnr Swanston &, La Trobe St, Melbourne VIC 3000, Australia","movie_theater, point_of_interest, establishment",http://www.hoyts.com.au/cinemas/locations/melbourne_central.aspx?utm_source=google&utm_medium=referral&utm_content=melbourne-central&utm_campaign=google-plus,https://www.facebook.com/pages/Hoyts-Melbourne-Central/602084099937073,-37.8102283,144.9627668
Village Cinemas ,,"movie_theater, point_of_interest, establishment",https://villagecinemas.com.au/cinemas/sunshine?utm_source=gmb&utm_medium=website-button&utm_campaign=always-on_sunshine,https://www.facebook.com/villagecinemas,46.3144754,11.0480288
Palace Cinemas,"1 Champ St, Coburg VIC 3058, Australia","movie_theater, point_of_interest, establishment",https://www.palacecinemas.com.au/cinemas/pentridge-cinema/,https://www.facebook.com/Palacecinemas,-37.736826,144.968318
Classic Cinemas,"9 Gordon St, Elsternwick VIC 3185, Australia","movie_theater, point_of_interest, establishment",http://www.classiccinemas.com.au/,https://www.facebook.com/classicmelbournemusic,-37.8837553,145.0005833
HOYTS Northland,"50 Murray Rd, Preston VIC 3072, Australia","movie_theater, point_of_interest, establishment",https://www.hoyts.com.au/cinemas/northland/now-showing?selectedDate=2022-10-05,https://www.facebook.com/HoytsNorthlandAU,-37.7368827,145.0320781
Reading Cinemas Millers Junction,"22 Hunter Rd, Altona North VIC 3025, Australia","movie_theater, point_of_interest, establishment",http://www.readingcinemas.com.au/,https://www.facebook.com/ReadingCinemasMillersJunction,-37.8425204,144.842589
Palace Westgarth Cinemas,"89 High St, Northcote VIC 3070, Australia","movie_theater, cafe, bar, food, point_of_interest, establishment",https://www.palacecinemas.com.au/session-times/,,-37.7799316,144.99654019430162
HOYTS Greensborough,"25 Main St, Greensborough VIC 3088, Australia","movie_theater, point_of_interest, establishment",https://www.hoyts.com.au/cinemas/greensborough/now-showing?selectedDate=2023-04-07,https://www.facebook.com/HoytsGreensborough,-37.7033651,145.103825
Reading Cinemas Burwood Brickworks,"70 Middleborough Rd, Burwood East VIC 3151, Australia","movie_theater, point_of_interest, establishment",http://www.readingcinemas.com.au/,https://www.facebook.com/readingcinemasburwood,-37.84886425,145.13293352353193
HOYTS Cinema District Docklands,"440 Docklands Dr, Docklands VIC 3008, Australia","movie_theater, point_of_interest, establishment",https://www.hoyts.com.au/cinemas/district-docklands/now-showing?selectedDate=2022-12-31,https://www.facebook.com/HoytsTheDistrictDocklands,-37.8121756,144.936403
Rooftop Cinema,"252 Swanston St, Melbourne VIC 3000, Australia","movie_theater, point_of_interest, establishment",http://rooftopcinema.com.au/,https://www.facebook.com/rooftopicebath,-37.8119429,144.9651425
FoMo Cinemas,"5 Bluestone Wy, Brunswick East VIC 3057, Australia","movie_theater, point_of_interest, establishment",https://fomocinemas.com.au/,https://www.facebook.com/fomo.cinemas.east.brunswick,-37.7716678,144.9787626
HOYTS Highpoint,"Rosamond Rd, Maribyrnong VIC 3032, Australia","movie_theater, point_of_interest, establishment",https://www.hoyts.com.au/cinemas/highpoint/now-showing?selectedDate=2022-10-05,https://www.facebook.com/HoytsHighpoint,-37.78553249,144.88366426237516
Palace Cinemas Balwyn,"231 Whitehorse Rd, Balwyn VIC 3103, Australia","movie_theater, bar, cafe, food, point_of_interest, establishment",https://www.palacecinemas.com.au/cinemas/palace-balwyn/,https://www.facebook.com/Palacecinemas,-37.8120219,145.0755955
HOYTS Broadmeadows,"48/50 Pearcedale Parade, Broadmeadows VIC 3047, Australia","movie_theater, point_of_interest, establishment",https://www.hoyts.com.au/cinemas/broadmeadows/now-showing?selectedDate=2023-04-07,https://www.facebook.com/HoytsBroadmeadows,-37.6788033,144.9191121
HOYTS Victoria Gardens,"Corner Victoria &, Burnley St, Richmond VIC 3121, Australia","movie_theater, point_of_interest, establishment",https://www.hoyts.com.au/cinemas/victoria-gardens/now-showing?selectedDate=2022-12-31,https://www.facebook.com/HoytsVictoriaGardens,-37.8139217,145.0115614
Lido Cinemas,"675 Glenferrie Rd, Hawthorn VIC 3122, Australia","movie_theater, point_of_interest, establishment",http://www.lidocinemas.com.au/,https://www.facebook.com/lidocinemas,-37.8205529,145.0355738
Cinema Nova,"380 Lygon St, Carlton VIC 3053, Australia","movie_theater, point_of_interest, establishment",http://www.cinemanova.com.au/,https://www.facebook.com/CinemaNova,-37.7978092,144.9680124
IMAX Melbourne (Museums Victoria),"Rathdowne St, Carlton VIC 3053, Australia","movie_theater, point_of_interest, establishment",http://www.imaxmelbourne.com.au/,https://www.facebook.com/imaxmelbourne,-37.79270671,144.97138718796526
Henkel Street Cinema,"Factory 10/102 Henkel St, Brunswick VIC 3056, Australia","movie_theater, point_of_interest, establishment",http://henkelstreetcinema.com.au/,https://www.facebook.com/henkelstreetcinema,-37.7643422,144.9545655
Thornbury Picture House,"802 High St, Thornbury VIC 3071, Australia","movie_theater, point_of_interest, establishment",http://www.thornburypicturehouse.com.au/,https://www.facebook.com/ThornburyPictureHouse,-37.75393655,145.0017325
The Jam Factory,"500 Chapel St, South Yarra VIC 3141, Australia","shopping_mall, movie_theater, restaurant, point_of_interest, food, establishment",http://thejamfactory.com.au/,https://www.facebook.com/TheJamFactoryMelbournesCultureVictoriamuise2022,-37.8424761,144.9958873958514
Chinatown Cinema,"Midcity Centre, Level 1/200 Bourke St, Melbourne VIC 3000, Australia","movie_theater, point_of_interest, establishment",http://chinatowncinema.com.au/,https://www.facebook.com/hoovercinema,-37.8122805,144.9672498
Southbank Theatre,"140 Southbank Blvd, Southbank VIC 3006, Australia","point_of_interest, establishment",,https://www.facebook.com/SouthbankTheatre,-37.82408785,144.96814021656496
Doncaster Playhouse,"679 Doncaster Rd, Doncaster VIC 3108, Australia","point_of_interest, establishment",http://www.manningham.vic.gov.au/doncaster-playhouse,https://www.facebook.com/DoncasterPlayhouse,-37.78725435,145.13035500447015
Blow Up Cinema,"12 Collier Cres, Brunswick VIC 3056, Australia","movie_theater, point_of_interest, establishment",http://blowupcinema.com/,https://www.facebook.com/openaircinemasmelbourne,-37.77221567,144.9538273
Regent Theatre,"191 Collins St, Melbourne VIC 3000, Australia","point_of_interest, establishment",http://www.marrinergroup.com.au/,https://www.facebook.com/Regent.Theatre.Melbourne,-37.815497,144.967598
Her Majesty's Theatre,"219 Exhibition St, Melbourne VIC 3000, Australia","point_of_interest, establishment",http://www.hmt.com.au/,https://www.facebook.com/hmtmelb,-37.81093205,144.96962160199388
Williamstown Musical Theatre Company,"315 Civic Parade, Altona VIC 3018, Australia","point_of_interest, establishment",http://www.wmtc.org.au/,https://www.facebook.com/wmtcinc,-37.86345864,144.82139240569498
Alex Theatre St Kilda,"1/135 Fitzroy St, St Kilda VIC 3182, Australia","movie_theater, night_club, bar, point_of_interest, store, establishment",https://www.alextheatre.au/,https://www.facebook.com/alextheatrestk,-37.85678543,144.98280928632727
La Trobe University,"Plenty Rd, Bundoora VIC 3086, Australia","university, point_of_interest, establishment",https://www.latrobe.edu.au/,https://www.facebook.com/latrobe,-37.71825765,145.0417362088675
Boroondara Sports Complex,"271C Belmore Rd, Balwyn North VIC 3104, Australia","gym, school, point_of_interest, health, establishment",https://bsc.boroondaraleisure.com.au/?utm_source=google&utm_medium=organic&utm_campaign=gmb-listing,https://www.facebook.com/BSCYMCA,-37.803858,145.086717
La Trobe Indoor Sports Centre,"Centreway, Bundoora VIC 3083, Australia","gym, school, health, point_of_interest, establishment",http://www.latrobe.edu.au/sport,https://www.facebook.com/latrobe,-37.71997804,145.05416816323947
Melbourne University Sport,"103 The University of Melbourne, Tin Alley, Parkville VIC 3082, Australia","gym, stadium, health, point_of_interest, establishment",http://sport.unimelb.edu.au/,https://www.facebook.com/MelbUniSport,-37.7962524,144.9619792
Oakleigh Indoor Sports Centre,"4 Railway Ave, Oakleigh VIC 3166, Australia","point_of_interest, establishment",http://www.oakleighindoorsports.com.au/,https://www.facebook.com/oakleighindoor,-37.909448,145.1015503
Stonnington Sports Centre,"32B Chadstone Rd, Malvern East VIC 3145, Australia","point_of_interest, establishment",https://www.stonnington.vic.gov.au/active/Sport-and-facilities/Stadiums,,-37.8839166,145.0787877
Moorabbin Indoor Sports,"2/117 Cochranes Rd, Moorabbin VIC 3189, Australia","point_of_interest, establishment",http://www.mitennis.com.au/,https://www.facebook.com/moorabbinindoorsports,-37.9441028,145.0748406
Bundoora Indoor Sports Centre,"39 Clements Ave, Bundoora VIC 3083, Australia","point_of_interest, establishment",https://bundooraindoorsports.com.au/,https://www.facebook.com/Bundooraindoorsports,-37.7051195,145.0730948
Albert Park Indoor Sports Centre,"Pit Building 3, Aughtie Dr, Albert Park VIC 3206, Australia","point_of_interest, establishment",http://www.apisc.com.au/,https://www.facebook.com/AlbertParkIndoorSportsCentre,-37.8501104,144.96965
Westgate Indoor Sports,"61 Dohertys Rd, Altona North VIC 3025, Australia","clothing_store, store, point_of_interest, establishment",http://www.westgateindoorsports.com.au/,https://www.facebook.com/westgateindoorsports,-37.8319886,144.82567581218964
State Sport Centres - MSAC,"30 Aughtie Dr, Albert Park VIC 3206, Australia","point_of_interest, establishment",https://statesportcentres.com.au/,https://www.facebook.com/StateSportCentres,-37.8393229,144.9635459
RMIT Sports Centre,"203 McKimmies Rd, Bundoora VIC 3083, Australia","university, point_of_interest, establishment",,https://www.facebook.com/RMITSportsCentre,-37.6788093,145.068792
Diamond Valley Sports and Fitness Centre,"44 Civic Dr, Greensborough VIC 3088, Australia","stadium, gym, health, point_of_interest, establishment",https://nillumbikleisure.com.au/diamond-valley-sfc/?utm_source=google&utm_medium=organic&utm_campaign=gmb-listing,https://www.facebook.com/DiamondValleySFC,-37.6886496,145.1119386
Northcote Indoor Sports,"338 Mansfield St, Thornbury VIC 3071, Australia","point_of_interest, establishment",https://www.northcoteindoorsports.com.au/,https://www.facebook.com/northcoteindoorsports,-37.75934036,145.02769013636365
Westgate Sports & Leisure Centre,"61-69 Dohertys Rd, Altona North VIC 3025, Australia","point_of_interest, establishment",https://westgatesports.com.au/,https://www.facebook.com/westgatesports,-37.8319886,144.82567581218964
Action Indoor Sports Maribyrnong,"90 Gordon St, Footscray VIC 3011, Australia","point_of_interest, establishment",http://www.actionindoorsports.com.au/stadiums/maribyrnong/,https://www.facebook.com/actionindoorsportsmaribyrnong,-37.7882827,144.88954454685216
RecWest Braybrook,"39 Lily St, Braybrook VIC 3019, Australia","school, point_of_interest, establishment",http://www.recwestbraybrook.ymca.org.au/,https://www.facebook.com/Recwestbraybrook,-37.7834604,144.8492407
Monash Sport,"Monash University Clayton Campus, 42 Scenic Blvd, Clayton VIC 3168, Australia","gym, health, point_of_interest, establishment",http://monash.edu/sport/,https://www.facebook.com/Monash.Sport,-37.9128309,145.1361482
Swinburne Senior Secondary College Sports Centre,"122 Camberwell Rd, Hawthorn East VIC 3123, Australia","point_of_interest, establishment",,https://www.facebook.com/SwinburneSeniorSecondaryCollege,-37.8289995,145.0540107
Aussie Indoor Sports,"101 Glen Huntly Rd, Elwood VIC 3184, Australia","point_of_interest, establishment",,https://www.facebook.com/aussieindoorsports,-37.8819945,144.9853878366857
La Trobe Sports Park,"Bundoora VIC 3083, Australia","point_of_interest, establishment",http://www.latrobe.edu.au/sport,https://www.facebook.com/latrobe,-37.6982468,145.0596757
Social Sport - St Kilda,"Peanut Farm Reserve, Spenser St, St Kilda VIC 3182, Australia","point_of_interest, establishment",https://www.socialsport.com.au/,https://www.facebook.com/getsocialsport,-37.8699361,144.978566
Oakleigh Recreation Centre,"2A Park Rd, Oakleigh VIC 3166, Australia","gym, health, point_of_interest, establishment",https://www.activemonash.vic.gov.au/Visit/Locations/Oakleigh-Recreation-Centre,https://www.facebook.com/activeorc,-37.89319315,145.09765432957363
PEGS Sports Field,"127 Wright Rd, Keilor Park VIC 3042, Australia","point_of_interest, establishment",http://www.pegs.vic.edu.au/campus/keilorparksports/index.htm,https://www.facebook.com/SJGittingssporting,-37.715052,144.8467251
Bialik College Gringlas Sports Centre,"21 Cato St, Hawthorn East VIC 3123, Australia","point_of_interest, establishment",https://www.bialik.vic.edu.au/about-bialik/campus-and-facilities/gringlas-sports-centre,https://www.facebook.com/BialikCollege,-37.8431553,145.0430029
CitySide Sports - Netball & Volleyball,"22-24 Syme St, Brunswick VIC 3056, Australia","point_of_interest, establishment",http://www.citysidesports.com/brunswick,https://www.facebook.com/CitySideSports,-37.7695492,144.954366
Xavier Sports Centre,"Stephenson Sports Centre, Stephson Sports Centre, Xavier College, 135 Barkers Rd, Kew VIC 3101, Australia","point_of_interest, establishment",,https://www.facebook.com/profile.php?id=100063505893507,-37.8114807,145.0305076
Monash Sport,"Building S/2 Princes Ave, Caulfield East VIC 3145, Australia","stadium, gym, point_of_interest, health, establishment",http://www.monash.edu.au/sport,https://www.facebook.com/Monash.Sport,-37.8771904,145.0430932
River's Edge Events,"Level 1, 18/38 Siddeley St, Melbourne VIC 3008, Australia","point_of_interest, establishment",https://www.riversedgeevents.com.au/?utm_source=google&utm_medium=organic&utm_campaign=gmb&utm_term=plcid_13216777170138647414,https://www.facebook.com/RiversEdgeEventsMelb,-37.823089,144.953679
Alto Event Space,"Top Floor, Melbourne GPO Building Cnr Elizabeth + Little Bourke Streets, Melbourne VIC 3000, Australia","point_of_interest, establishment",http://altoevents.com.au/,https://www.facebook.com/altoeventspace,-37.8132296,144.9631522
Canvas House,"137 Buckhurst St, South Melbourne VIC 3205, Australia","art_gallery, point_of_interest, establishment",https://canvashouse.com.au/,https://www.facebook.com/wearecanvashouse,-37.8309167,144.9504841
Little Ginger,"4/10 Akuna Dr, Williamstown VIC 3016, Australia","point_of_interest, establishment",http://littleginger.com.au/,https://www.facebook.com/LittleGingerVenue,-37.8506313,144.8744944
Harbour Kitchen,"Shop1/800 Bourke St, Docklands VIC 3008, Australia","point_of_interest, establishment",https://www.theharbourkitchen.com.au/,https://www.facebook.com/HarbourKitchen,-37.8187162,144.9452672
Fior,"476 Brunswick Rd, Parkville VIC 3055, Australia","point_of_interest, establishment",http://www.fiorevents.com.au/,https://www.facebook.com/Fiormelbourne,-37.7743575,144.9383921
The Promenade Docklands,"Suite 2, Level 1/78 Newquay Promenade, Docklands VIC 3008, Australia","point_of_interest, establishment",http://www.thepromenadedocklands.com.au/,https://www.facebook.com/thepromenadedocklands,-37.8153998,144.9399816
One of Nine,"203 Swan St, Richmond VIC 3121, Australia","point_of_interest, establishment",http://www.oneofnine.com.au/,https://www.facebook.com/OneofNineEvents,-37.82565588,144.99886340588236
LOLA St Kilda,"60 Fitzroy St, St Kilda VIC 3182, Australia","point_of_interest, establishment",http://www.lolastkilda.com.au/,https://www.facebook.com/LOLAStKilda,-37.85887175,144.97704253427435
Greenfields Albert Park,"Lakeside Dr, Albert Park VIC 3004, Australia","point_of_interest, establishment",https://www.greenfieldsalbertpark.com.au/,https://www.facebook.com/GreenfieldsAlbertPark,-37.8384315,144.96866938391875
Two Ton Max,"124 Langford St, North Melbourne VIC 3051, Australia","point_of_interest, establishment",https://twotonmax.com.au/,https://www.facebook.com/twotonmax,-37.79722083,144.93692273895033
Le Ciel Events,"Level 6/13 Cremorne St, Cremorne VIC 3121, Australia","point_of_interest, establishment",http://www.leciel.com.au/,https://www.facebook.com/profile.php?id=100068765851547,-37.8257408,144.9912567
The Palms Cremorne,"14a Palmer Parade, Cremorne VIC 3121, Australia","point_of_interest, establishment",http://www.thepalmscremorne.com.au/,https://www.facebook.com/thepalmscremorne,-37.83114913,144.9931560622467
The Wool Mill,"161 Donald St, Brunswick East VIC 3057, Australia","point_of_interest, establishment",https://thewoolmill.com.au/,https://www.facebook.com/woolmill,-37.75890201,144.97600911016198
Melbourne's Best Functions,"Level 9/179 Queen St, Melbourne VIC 3000, Australia","point_of_interest, establishment",https://melbournesbestfunctions.com.au/,https://www.facebook.com/melbournesbestfunctions,-37.8145099,144.9600785
Gather and Tailor,"Unit 11/41-59 Sims St, West Melbourne VIC 3003, Australia","point_of_interest, establishment",http://www.gatherandtailor.com.au/,https://www.facebook.com/gatherandtailor,-37.801554,144.9109746
Chapel 1885,"25 Sackville St, Collingwood VIC 3066, Australia","point_of_interest, establishment",http://chapel1885.com.au/,https://www.facebook.com/Chapel1885,-37.79848562,144.9867431
Rokeby 100,"100 Rokeby St, Collingwood VIC 3066, Australia","point_of_interest, establishment",https://www.rokeby100.com.au/?utm_source=gmb&utm_medium=gmb&utm_campaign=gmb,https://www.facebook.com/Rokeby100,-37.8058889,144.9883643
Red Rock Venues,"566 City Rd, South Melbourne VIC 3205, Australia","bar, point_of_interest, establishment",http://redrockvenues.com.au/,https://www.facebook.com/Redrockvenues,-37.83254823,144.95240569174675
Aunty Kim's,"92-94 Johnston St, Collingwood VIC 3066, Australia","store, point_of_interest, establishment",http://www.auntykims.com/,https://www.facebook.com/auntykimscollingwood,-37.7992268,144.9880669
The Trust,"405 Flinders Ln, Melbourne VIC 3000, Australia","point_of_interest, establishment",https://thetrustmelbourne.com.au/,https://www.facebook.com/thetrustmelbourne,-37.818514,144.9604015
Chin Chin Events,"Level 1/125 Flinders Ln, Melbourne VIC 3000, Australia","point_of_interest, establishment",https://www.chinchin.melbourne/event-spaces/,https://www.facebook.com/ChinChinEventsMelbourne,-37.8156824,144.9704039
The Third Day,"290 Macaulay Rd, North Melbourne VIC 3051, Australia","point_of_interest, establishment",https://thethirdday.com.au/,https://www.facebook.com/thethirddaynm,-37.79495975,144.93665199999998
Plaza Ballroom,"191 Collins St, Melbourne VIC 3000, Australia","point_of_interest, establishment",https://plazaballroom.com.au/,https://www.facebook.com/Plaza.Ballroom,-37.815497,144.967598
Charlie Showroom,"360 Swanston St, Melbourne VIC 3000, Australia","point_of_interest, establishment",https://charlieshowroom.weebly.com/,https://www.facebook.com/shwrmcom,-37.80878633,144.96366706961274
Russian House Melbourne,"118 Greeves St, Fitzroy VIC 3065, Australia","food, point_of_interest, establishment",https://www.russianhousemelbourne.org.au/,https://www.facebook.com/russianhousemelbourne,-37.79982794,144.97840274927256
Coburg Velodrome,"30-34 Charles St, Coburg North VIC 3058, Australia","point_of_interest, establishment",http://www.coburgcycling.com.au/,https://www.facebook.com/coburgvelodrome,-37.7288278,144.9551439
The Duke of Wellington,"2/146 Flinders St, Melbourne VIC 3000, Australia","bar, restaurant, point_of_interest, food, establishment",https://www.dukeofwellington.com.au/?utm_source=google&utm_medium=organic&utm_campaign=gmb&utm_term=plcid_15210894070217204608,https://www.facebook.com/thedukeofwellingtonmelbourne,-37.82001468,144.95881374435533
Geppetto Trattoria,"78a Wellington Parade, East Melbourne VIC 3002, Australia","meal_takeaway, restaurant, food, point_of_interest, establishment",http://www.geppettotrattoria.com/,https://www.facebook.com/Geppettotrattoria,-37.8163531,144.98743284073532
Le Bon Ton,"51 Gipps St, Collingwood VIC 3066, Australia","restaurant, bar, point_of_interest, food, establishment",http://www.lebonton.com.au/,https://www.facebook.com/lebontonmelb,-37.8047536,144.9886343
"Holiday Inn Express Melbourne Southbank, an IHG Hotel","35/47 City Rd, Southbank VIC 3006, Australia","lodging, point_of_interest, establishment",https://www.ihg.com/holidayinnexpress/hotels/us/en/melbourne/melms/hoteldetail?cm_mmc=GoogleMaps-_-EX-_-AU-_-MELMS,https://www.facebook.com/HolidayInnExpressMelbourneSouthbank,-37.82270246,144.96373003271955
Time Out Fed Square,"2 Swanston St, Melbourne VIC 3000, Australia","restaurant, bar, food, point_of_interest, establishment",http://www.timeoutfedsquare.com.au/,https://www.facebook.com/TimeoutFedSquare,-37.8184111,144.9683662565049
Stamford Plaza Melbourne,"111 Little Collins St, Melbourne VIC 3000, Australia","lodging, bar, restaurant, food, point_of_interest, establishment",https://www.stamford.com.au/spm,https://www.facebook.com/StamfordPlazaMelbourne,-37.81359225,144.9700614178762
Taxi Kitchen,"Taxi Kitchen, Transport Hotel, Level 1 Federation Square, Melbourne VIC 3000, Australia","restaurant, food, point_of_interest, establishment",https://transporthotel.com.au/taxi-kitchen/,https://www.facebook.com/TaxiKitchenMelbourne,-37.81820779,144.9683928
Queensberry Hotel,"593 Swanston St, Carlton VIC 3053, Australia","bar, restaurant, food, point_of_interest, establishment",http://www.queensberryhotel.com.au/,https://www.facebook.com/QueensberryHotel,-37.80474125,144.9629522032802
Transit Rooftop Bar,"Transport Hotel, Level 2 Federation Square, Melbourne VIC 3000, Australia","bar, night_club, food, point_of_interest, establishment",https://transporthotel.com.au/transitbar/,https://www.facebook.com/rooftopbarmelbourne,-37.81828199,144.9683847
Bluetrain,"3 Southgate Ave, Southbank VIC 3006, Australia","restaurant, bar, cafe, store, food, point_of_interest, establishment",https://bluetrain.com.au/,https://www.facebook.com/bluetrainaust,-37.8201768,144.966393
The Tippler & Co.,"58 Wellington Parade, East Melbourne VIC 3002, Australia","restaurant, bar, food, point_of_interest, establishment",https://thetipplerandco.com/,https://www.facebook.com/TipplerandCo,-37.81654055,144.98841819720528
Transport Hotel,"Transport Hotel, Ground Level Federation Square, Melbourne VIC 3000, Australia","bar, restaurant, point_of_interest, food, establishment",http://transporthotel.com.au/,https://www.facebook.com/TransportHotel,-37.81835059,144.9683925
The Precinct Hotel,"60 Swan St, Cremorne VIC 3121, Australia","bar, restaurant, food, point_of_interest, establishment",http://www.precincthotel.com.au/,https://www.facebook.com/theprecincthotel,-37.82483581,144.99044494950797
Grace Darling Hotel,"114 Smith St, Collingwood VIC 3066, Australia","bar, restaurant, food, point_of_interest, establishment",http://thegracedarlinghotel.com.au/,https://www.facebook.com/thegracedarling,-37.804851,144.983442
Cosmopolitan Hotel and Apartments,"6 Carlisle St, St Kilda VIC 3182, Australia","lodging, point_of_interest, establishment",http://cosmostkilda.com/,https://www.facebook.com/cosmostkilda,-37.866758,144.9797025
Gardens House,"Birdwood Ave, Melbourne VIC 3004, Australia","point_of_interest, establishment",http://atlanticgroup.com.au/venues/gardens-house/,https://www.facebook.com/profile.php?id=100090011051035,-37.82683271,144.97238679810675
The Timber Yard,"351 Plummer St, Port Melbourne VIC 3207, Australia","point_of_interest, establishment",http://www.thetimberyard.com.au/,https://www.facebook.com/thetimberyardvenue,-37.8326711,144.92121264355478
Quat Quatta,"17 Quat Quatta Ave, Ripponlea VIC 3185, Australia","point_of_interest, establishment",http://www.quatquatta.com.au/,https://www.facebook.com/QuatQuatta,-37.87797105,144.99656323517803
Prince Deck,"2 Acland St, St Kilda VIC 3182, Australia","point_of_interest, establishment",,https://www.facebook.com/theprincedeck,-37.8621338,144.9740773
Botanicah,"48 Commercial Rd, Prahran VIC 3181, Australia","point_of_interest, establishment",,https://www.facebook.com/botanicah.melbourne,-37.8460934,144.9875198
Carousel,"22 Aughtie Dr, Albert Park VIC 3205, Australia","point_of_interest, establishment",https://foodanddesire.com.au/venues/carousel/,https://www.facebook.com/carouselalbertpark,-37.8455661,144.96725256915076
OPEN FACTORY,"9 Cobham St, Reservoir VIC 3073, Australia","point_of_interest, establishment",https://openfactorymelbourne.com.au/,https://www.facebook.com/profile.php?id=100093201512718,-37.708682,144.98373817587725
Elwood Bathers,"15 Elwood Foreshore, Elwood VIC 3184, Australia","restaurant, food, point_of_interest, establishment",http://elwoodbathers.com/,https://www.facebook.com/elwoodbathers,-37.8895271,144.9843612
Studley Park Boathouse,"1 Boathouse Rd, Kew VIC 3101, Australia","restaurant, cafe, bar, food, point_of_interest, establishment",https://studleyparkboathouse.com.au/?utm_source=google&utm_medium=organic&utm_campaign=gmb,https://www.facebook.com/spboathouse,-37.801382,145.0077832
Abbots Yard,"329-341 Victoria St, Abbotsford VIC 3067, Australia","bar, restaurant, food, point_of_interest, establishment",http://abbotsyard.com/,https://www.facebook.com/AbbotsYard,-37.81100161,145.00510866335327
Abbotsford Convent,"1 St Heliers St, Abbotsford VIC 3067, Australia","tourist_attraction, park, point_of_interest, establishment",http://abbotsfordconvent.com.au/,https://www.facebook.com/AbbotsfordConvent,-37.8035366,145.0049159
Alphington Community Centre,"2 Kelvin Rd, Alphington VIC 3078, Australia","point_of_interest, establishment",https://www.alphington.org.au/,https://www.facebook.com/alphingtoncommunitycentre,-37.77659526,145.03065313752236
The Boatbuilders Yard,"23 S Wharf Promenade, South Wharf VIC 3006, Australia","cafe, bar, restaurant, food, point_of_interest, establishment",https://www.theboatbuildersyard.com.au/,https://www.facebook.com/TheBoatbuildersYard,-37.82388931,144.95485167593887
Surrey Hills Neighbourhood Centre,"157 Union Rd, Surrey Hills VIC 3127, Australia","point_of_interest, establishment",http://www.surreyhillsnc.org.au/,https://www.facebook.com/surrey.neighbourhoodcentre,-37.82311325,145.0984325
"Instant Marquees - Marquee Hire Melbourne and Party, Events Hire","51-53 Capella Cres, Moorabbin VIC 3189, Australia","furniture_store, home_goods_store, point_of_interest, store, establishment",http://www.instantmarqueesmelbourne.com.au/,https://www.facebook.com/kmanievents,-37.94217257,145.07519869384808
Marquee Monkeys,"16 Meriton Pl, Clayton South VIC 3169, Australia","furniture_store, home_goods_store, point_of_interest, store, establishment",http://marqueemonkeys.com.au/,https://www.facebook.com/MarqueeMonkeys,-37.9327997,145.1206186114542
St Andrews Conservatory,"128 Nicholson St, Fitzroy VIC 3065, Australia","point_of_interest, establishment",http://standrewsconservatory.com.au/,https://www.facebook.com/standrewsconservatory,-37.80181245,144.9744615727893
Brookwood Receptions,"10-12 Lawson Cres, Thomastown VIC 3074, Australia","point_of_interest, establishment",http://www.brookwoodreceptions.com.au/,https://www.facebook.com/brookwoodreceptions,-37.69130497,144.98802806912005
Venue 71,"71 Maida Ave, Sunshine North VIC 3020, Australia","point_of_interest, establishment",https://venue71.com.au/,https://www.facebook.com/profile.php?id=61558720041953,-37.75073405,144.83524123378874
Cargo Hall,"39 S Wharf Promenade, South Wharf VIC 3006, Australia","point_of_interest, establishment",http://www.showtimeeventgroup.com.au/,https://www.facebook.com/thecargohall,-37.82388931,144.95485167593887
Arrow On Swanston Events | Venue Hire | Melbourne CBD,"488 Swanston St, Carlton VIC 3053, Australia","point_of_interest, establishment",https://arrowevents.com.au/,https://www.facebook.com/arrowonswanston,-37.8055511,144.9633148
Pearl Riverfront,"Crowne Plaza Melbourne 1, 5 Spencer St, Docklands VIC 3008, Australia","point_of_interest, establishment",https://pearlriverfront.com.au/,https://www.facebook.com/pearlriverfront,-37.8228308,144.9552566
Aurora Receptions,"149 Donald St, Brunswick East VIC 3057, Australia","point_of_interest, establishment",http://www.aurorareceptions.com.au/,https://www.facebook.com/aurorareceptionsau,-37.75890201,144.97600911016198
Palladium at Crown,"Level 1 Crown Towers, Crown Melbourne, 8 Whiteman St, Southbank VIC 3006, Australia","point_of_interest, establishment",https://www.crownmelbourne.com.au/events-and-conferences/private-events/palladium?utm_source=google&utm_medium=organic&utm_campaign=gbp&utm_content=palladium-web,https://www.facebook.com/crownmelbourne,-37.822181,144.959875
Harbour Room,"2 Pier Rd, St Kilda VIC 3182, Australia","point_of_interest, establishment",https://www.harbourroom.com.au/,https://www.facebook.com/harbourroomstkilda,-37.85885258,144.96948437477553
Brunswick Music Festival,"270 Sydney Rd, Brunswick VIC 3056, Australia","point_of_interest, establishment",http://www.brunswickmusicfestival.com.au/,https://www.facebook.com/MelbWarehouseFest,-37.7713516,144.9617438862518
Women in Music Festival,"336/348 Swanston St, Melbourne VIC 3004, Australia","point_of_interest, establishment",https://www.womeninmusicfestival.net/,https://www.facebook.com/TheWomeninMusicFestival,-37.8090366,144.9639673
"Merri-bek Family Festival ""MBFF""","233 Sydney Rd, Brunswick VIC 3056, Australia","point_of_interest, establishment",https://www.mbff.au/,https://www.facebook.com/merribekfamilyfestival,-37.7720891,144.9608742
Good Things Festival,"448 Epsom Rd, Flemington VIC 3031, Australia","point_of_interest, establishment",,https://www.facebook.com/GoodThingsFestival,-37.78925135,144.9127712588256
 RMIT University,"Building 16 336/348 Swanston St, Melbourne VIC 3000, Australia","point_of_interest, establishment",https://www.rmit.edu.au/,https://www.facebook.com/RMITuniversity,-37.8091922,144.9639727
Monash Uni Student Theatre,"Campus Centre, Monash University, 21 Chancellors Walk, Clayton VIC 3168, Australia","point_of_interest, establishment",http://msa.monash.edu/theatre/,https://www.facebook.com/musttheatre,-37.9117585,145.13241
State Library Victoria,"State Library Victoria, 328 Swanston St, Melbourne VIC 3000, Australia","point_of_interest, establishment",https://venues.slv.vic.gov.au/venue/state-library-theatrette/,https://www.facebook.com/statelibraryvictoria,-37.8097696,144.96553516995195
Kensington Town Hall,"30/34 Bellair St, Kensington VIC 3031, Australia","city_hall, local_government_office, point_of_interest, establishment",https://meatmarket.org.au/event-spaces/kensington-town-hall-2/,https://www.facebook.com/profile.php?id=100079257653379,-37.79716205,144.93127312371328
Leonardian Centre,"163 South Rd, Brighton East VIC 3187, Australia","point_of_interest, establishment",https://www.leonardiancentre.com.au/,https://www.facebook.com/profile.php?id=100068553915113,-37.92848005,145.00763515887667
Clayton Community Centre,"9/15 Cooke St, Clayton VIC 3168, Australia","point_of_interest, establishment",https://www.monash.vic.gov.au/Community/Community-Halls-Centres/Community-Centres/Clayton-Community-Centre,https://www.facebook.com/claytoncommunitycentre,-37.92686134,145.1180520522718
Crown Melbourne,"8 Whiteman Street, Southbank Melbourne VIC 3006, Australia",casino,https://www.crownmelbourne.com.au/,https://www.facebook.com/crownmelbourne,-37.8224974,144.96008
Flemington Racecourse,"448 Epsom Road, Flemington Flemington VIC 3031, Australia",,,https://www.facebook.com/FlemingtonVRC,-37.78925135,144.9127712588256
Botanic gardens,"Birdwood Ave Melbourne VIC 3004, Australia",,https://www.rbg.vic.gov.au/,https://www.facebook.com/BotanicGardensVictoria,-37.82683271,144.97238679810675
Mango Club,"577 Little Bourke St Docklands VIC 3000, Australia",,,https://www.facebook.com/mangoclubmelbourne,-37.81578222,144.95396129427266
